{
"type": "FeatureCollection",
"name": "ubicaciones_tren_ligero",
"crs": { "type": "name", "properties": { "name": "urn:ogc:def:crs:OGC:1.3:CRS84" } },
"features": [
{"type":"Feature","properties":{"SISTEMA":"STE Tren ligero","NOMBRE":"Xochimilco","LINEA":"01","EST":"18","TIPO":"Terminal","ALCALDIAS":"Xochimilco","AÑO":1988,"Ramp_s_rue":"Sí","Elevadores":"No","Guia_tact":"Sí"},"geometry":{"type":"Point","coordinates":[-99.108041845103742,19.259455015249902,0.0]}},
{"type":"Feature","properties":{"SISTEMA":"STE Tren ligero","NOMBRE":"Francisco Goitia","LINEA":"01","EST":"17","TIPO":"Intermedia","ALCALDIAS":"Xochimilco","AÑO":1988,"Ramp_s_rue":"Sí","Elevadores":"No","Guia_tact":"Sí"},"geometry":{"type":"Point","coordinates":[-99.111242476918207,19.260737404864091,0.0]}},
{"type":"Feature","properties":{"SISTEMA":"STE Tren ligero","NOMBRE":"Huichapan","LINEA":"01","EST":"16","TIPO":"Intermedia","ALCALDIAS":"Xochimilco","AÑO":1988,"Ramp_s_rue":"Sí","Elevadores":"No","Guia_tact":"Sí"},"geometry":{"type":"Point","coordinates":[-99.118634872819342,19.264453671455819,0.0]}},
{"type":"Feature","properties":{"SISTEMA":"STE Tren ligero","NOMBRE":"La Noria","LINEA":"01","EST":"15","TIPO":"Intermedia","ALCALDIAS":"Xochimilco","AÑO":1988,"Ramp_s_rue":"Sí","Elevadores":"No","Guia_tact":"Sí"},"geometry":{"type":"Point","coordinates":[-99.125551598895996,19.267916672284272,0.0]}},
{"type":"Feature","properties":{"SISTEMA":"STE Tren ligero","NOMBRE":"Tepepan","LINEA":"01","EST":"14","TIPO":"Intermedia","ALCALDIAS":"Xochimilco","AÑO":1988,"Ramp_s_rue":"No","Elevadores":"No","Guia_tact":"Sí"},"geometry":{"type":"Point","coordinates":[-99.133159433139298,19.279531550383915,0.0]}},
{"type":"Feature","properties":{"SISTEMA":"STE Tren ligero","NOMBRE":"Periférico","LINEA":"01","EST":"13","TIPO":"Intermedia","ALCALDIAS":"Tlalpan","AÑO":1988,"Ramp_s_rue":"No","Elevadores":"No","Guia_tact":"Sí"},"geometry":{"type":"Point","coordinates":[-99.139691781271836,19.282725341369481,0.0]}},
{"type":"Feature","properties":{"SISTEMA":"STE Tren ligero","NOMBRE":"Xomalí","LINEA":"01","EST":"12","TIPO":"Intermedia","ALCALDIAS":"Tlalpan","AÑO":1988,"Ramp_s_rue":"Sí","Elevadores":"No","Guia_tact":"Sí"},"geometry":{"type":"Point","coordinates":[-99.146742107459858,19.288712355973878,0.0]}},
{"type":"Feature","properties":{"SISTEMA":"STE Tren ligero","NOMBRE":"Huipulco","LINEA":"01","EST":"11","TIPO":"Intermedia","ALCALDIAS":"Tlalpan","AÑO":1988,"Ramp_s_rue":"Sí","Elevadores":"No","Guia_tact":"Sí"},"geometry":{"type":"Point","coordinates":[-99.150692981072382,19.297494257239979,0.0]}},
{"type":"Feature","properties":{"SISTEMA":"STE Tren ligero","NOMBRE":"Estadio Azteca","LINEA":"01","EST":"10","TIPO":"Intermedia","ALCALDIAS":"Coyoacán / Tlalpan","AÑO":1986,"Ramp_s_rue":"No","Elevadores":"Sí","Guia_tact":"Sí"},"geometry":{"type":"Point","coordinates":[-99.147060643003584,19.30183124322102,0.0]}},
{"type":"Feature","properties":{"SISTEMA":"STE Tren ligero","NOMBRE":"El Vergel","LINEA":"01","EST":"09","TIPO":"Intermedia","ALCALDIAS":"Coyoacán","AÑO":1986,"Ramp_s_rue":"No","Elevadores":"No","Guia_tact":"Sí"},"geometry":{"type":"Point","coordinates":[-99.143066096668775,19.307203131259701,0.0]}},
{"type":"Feature","properties":{"SISTEMA":"STE Tren ligero","NOMBRE":"Textitlán","LINEA":"01","EST":"08","TIPO":"Intermedia","ALCALDIAS":"Coyoacán","AÑO":1986,"Ramp_s_rue":"No","Elevadores":"No","Guia_tact":"Sí"},"geometry":{"type":"Point","coordinates":[-99.14058025776913,19.312567628457924,0.0]}},
{"type":"Feature","properties":{"SISTEMA":"STE Tren ligero","NOMBRE":"Registro Federal","LINEA":"01","EST":"07","TIPO":"Intermedia","ALCALDIAS":"Coyoacán","AÑO":1986,"Ramp_s_rue":"No","Elevadores":"Sí","Guia_tact":"Sí"},"geometry":{"type":"Point","coordinates":[-99.138794387115482,19.317949873867757,0.0]}},
{"type":"Feature","properties":{"SISTEMA":"STE Tren ligero","NOMBRE":"Nezahualpilli","LINEA":"01","EST":"06","TIPO":"Intermedia","ALCALDIAS":"Coyoacán","AÑO":1986,"Ramp_s_rue":"No","Elevadores":"No","Guia_tact":"Sí"},"geometry":{"type":"Point","coordinates":[-99.138160447870661,19.32379418597991,0.0]}},
{"type":"Feature","properties":{"SISTEMA":"STE Tren ligero","NOMBRE":"Xotepingo","LINEA":"01","EST":"05","TIPO":"Intermedia","ALCALDIAS":"Coyoacán","AÑO":1986,"Ramp_s_rue":"No","Elevadores":"No","Guia_tact":"Sí"},"geometry":{"type":"Point","coordinates":[-99.139311873958945,19.327492020568094,0.0]}},
{"type":"Feature","properties":{"SISTEMA":"STE Tren ligero","NOMBRE":"La Virgen","LINEA":"01","EST":"04","TIPO":"Intermedia","ALCALDIAS":"Coyoacán","AÑO":1986,"Ramp_s_rue":"No","Elevadores":"No","Guia_tact":"Sí"},"geometry":{"type":"Point","coordinates":[-99.140618884710989,19.33170642331682,0.0]}},
{"type":"Feature","properties":{"SISTEMA":"STE Tren ligero","NOMBRE":"Ciudad Jardín","LINEA":"01","EST":"03","TIPO":"Intermedia","ALCALDIAS":"Coyoacán","AÑO":1986,"Ramp_s_rue":"No","Elevadores":"No","Guia_tact":"Sí"},"geometry":{"type":"Point","coordinates":[-99.14186109764195,19.335731287492653,0.0]}},
{"type":"Feature","properties":{"SISTEMA":"STE Tren ligero","NOMBRE":"Las Torres","LINEA":"01","EST":"02","TIPO":"Intermedia","ALCALDIAS":"Coyoacán","AÑO":1986,"Ramp_s_rue":"No","Elevadores":"Sí","Guia_tact":"Sí"},"geometry":{"type":"Point","coordinates":[-99.143435927790264,19.340822229811121,0.0]}},
{"type":"Feature","properties":{"SISTEMA":"STE Tren ligero","NOMBRE":"Tasqueña","LINEA":"01","EST":"01","TIPO":"Terminal","ALCALDIAS":"Coyoacán","AÑO":1986,"Ramp_s_rue":"Sí","Elevadores":"No","Guia_tact":"Sí"},"geometry":{"type":"Point","coordinates":[-99.140480577678389,19.343679965439264,0.0]}}
]
}
