{
"type": "FeatureCollection",
"name": "ubicaciones_cablebus",
"crs": { "type": "name", "properties": { "name": "urn:ogc:def:crs:OGC:1.3:CRS84" } },
"features": [
{"type":"Feature","properties":{"SISTEMA":"STE Cablebús","NOMBRE":"Indios Verdes","LINEA":"01","EST":"01","TIPO":"Terminal","AÑO":2021,"Elevadores":"Sí","Guia_tact":"Sí","P_braile":"No","ALCALDIAS":"Gustavo A. Madero"},"geometry":{"type":"Point","coordinates":[-99.122259000336129,19.495443999662093,0.0]}},
{"type":"Feature","properties":{"SISTEMA":"STE Cablebús","NOMBRE":"Ticomán","LINEA":"01","EST":"02","TIPO":"Intermedia","AÑO":2021,"Elevadores":"Sí","Guia_tact":"Sí","P_braile":"No","ALCALDIAS":"Gustavo A. Madero"},"geometry":{"type":"Point","coordinates":[-99.133804713342286,19.51167135654628,0.0]}},
{"type":"Feature","properties":{"SISTEMA":"STE Cablebús","NOMBRE":"La Pastora","LINEA":"01","EST":"03","TIPO":"Intermedia","AÑO":2021,"Elevadores":"Sí","Guia_tact":"Sí","P_braile":"No","ALCALDIAS":"Gustavo A. Madero"},"geometry":{"type":"Point","coordinates":[-99.140797441015124,19.527354446389406,0.0]}},
{"type":"Feature","properties":{"SISTEMA":"STE Cablebús","NOMBRE":"Campos Revolución","LINEA":"01","EST":"04","TIPO":"Intermedia","AÑO":2021,"Elevadores":"Sí","Guia_tact":"Sí","P_braile":"No","ALCALDIAS":"Gustavo A. Madero"},"geometry":{"type":"Point","coordinates":[-99.141959000379728,19.54026600015133,0.0]}},
{"type":"Feature","properties":{"SISTEMA":"STE Cablebús","NOMBRE":"Cuautepec","LINEA":"01","EST":"05","TIPO":"Terminal","AÑO":2021,"Elevadores":"Sí","Guia_tact":"Sí","P_braile":"No","ALCALDIAS":"Gustavo A. Madero"},"geometry":{"type":"Point","coordinates":[-99.134157476497379,19.557946283957474,0.0]}},
{"type":"Feature","properties":{"SISTEMA":"STE Cablebús","NOMBRE":"Tlalpexco","LINEA":"01","EST":"06","TIPO":"Antena","AÑO":2021,"Elevadores":"Sí","Guia_tact":"Sí","P_braile":"No","ALCALDIAS":"Gustavo A. Madero"},"geometry":{"type":"Point","coordinates":[-99.126426999840689,19.544771000160331,0.0]}},
{"type":"Feature","properties":{"SISTEMA":"STE Cablebús","NOMBRE":"Constitución de 1917","LINEA":"02","EST":"01","TIPO":"Terminal","AÑO":2021,"Elevadores":"Sí","Guia_tact":"Sí","P_braile":"Sí","ALCALDIAS":"Iztapalapa"},"geometry":{"type":"Point","coordinates":[-99.06250524253862,19.34485683464197,0.0]}},
{"type":"Feature","properties":{"SISTEMA":"STE Cablebús","NOMBRE":"Quetzacóatl","LINEA":"02","EST":"02","TIPO":"Intermedia","AÑO":2021,"Elevadores":"Sí","Guia_tact":"Sí","P_braile":"Sí","ALCALDIAS":"Iztapalapa"},"geometry":{"type":"Point","coordinates":[-99.043449257437359,19.32782696405453,0.0]}},
{"type":"Feature","properties":{"SISTEMA":"STE Cablebús","NOMBRE":"Las Torres Buenavista","LINEA":"02","EST":"03","TIPO":"Intermedia","AÑO":2021,"Elevadores":"Sí","Guia_tact":"Sí","P_braile":"Sí","ALCALDIAS":"Iztapalapa"},"geometry":{"type":"Point","coordinates":[-99.030826488215482,19.331787898683654,0.0]}},
{"type":"Feature","properties":{"SISTEMA":"STE Cablebús","NOMBRE":"Xalpa","LINEA":"02","EST":"04","TIPO":"Intermedia","AÑO":2021,"Elevadores":"Sí","Guia_tact":"Sí","P_braile":"Sí","ALCALDIAS":"Iztapalapa"},"geometry":{"type":"Point","coordinates":[-99.019002876530919,19.336172632577032,0.0]}},
{"type":"Feature","properties":{"SISTEMA":"STE Cablebús","NOMBRE":"Lomas de la Estancia","LINEA":"02","EST":"05","TIPO":"Intermedia","AÑO":2021,"Elevadores":"Sí","Guia_tact":"Sí","P_braile":"Sí","ALCALDIAS":"Iztapalapa"},"geometry":{"type":"Point","coordinates":[-99.008111678301546,19.340827679356774,0.0]}},
{"type":"Feature","properties":{"SISTEMA":"STE Cablebús","NOMBRE":"San Miguel Teotongo","LINEA":"02","EST":"06","TIPO":"Intermedia","AÑO":2021,"Elevadores":"Sí","Guia_tact":"Sí","P_braile":"Sí","ALCALDIAS":"Iztapalapa"},"geometry":{"type":"Point","coordinates":[-98.989548795283241,19.343525813579124,0.0]}},
{"type":"Feature","properties":{"SISTEMA":"STE Cablebús","NOMBRE":"Santa Marta","LINEA":"02","EST":"07","TIPO":"Terminal","AÑO":2021,"Elevadores":"Sí","Guia_tact":"Sí","P_braile":"Sí","ALCALDIAS":"Iztapalapa"},"geometry":{"type":"Point","coordinates":[-98.993982201317266,19.359516982647548,0.0]}},
{"type":"Feature","properties":{"SISTEMA":"STE Cablebús","NOMBRE":"Los Pinos/Constituyentes","LINEA":"03","EST":"06","TIPO":"Terminal","AÑO":2024,"Elevadores":"Sí","Guia_tact":"Sí","P_braile":"Sí","ALCALDIAS":"Miguel Hidalgo"},"geometry":{"type":"Point","coordinates":[-99.191460648134552,19.413043572103231,0.0]}},
{"type":"Feature","properties":{"SISTEMA":"STE Cablebús","NOMBRE":"Vasco de Quiroga","LINEA":"03","EST":"01","TIPO":"Terminal","AÑO":2024,"Elevadores":"Sí","Guia_tact":"Sí","P_braile":"Sí","ALCALDIAS":"Álvaro Obregón"},"geometry":{"type":"Point","coordinates":[-99.231795857507805,19.38422203148119,0.0]}},
{"type":"Feature","properties":{"SISTEMA":"STE Cablebús","NOMBRE":"Cineteca Nacional/Bodega de Arte","LINEA":"03","EST":"02","TIPO":"Intermedia","AÑO":2024,"Elevadores":"Sí","Guia_tact":"Sí","P_braile":"Sí","ALCALDIAS":"Álvaro Obregón"},"geometry":{"type":"Point","coordinates":[-99.22905342456194,19.391211297667642,0.0]}},
{"type":"Feature","properties":{"SISTEMA":"STE Cablebús","NOMBRE":"PARCUR/Colegio de Arquitectos","LINEA":"03","EST":"03","TIPO":"Intermedia","AÑO":2024,"Elevadores":"Sí","Guia_tact":"Sí","P_braile":"Sí","ALCALDIAS":"Miguel Hidalgo"},"geometry":{"type":"Point","coordinates":[-99.222165878960595,19.396777747835788,0.0]}},
{"type":"Feature","properties":{"SISTEMA":"STE Cablebús","NOMBRE":"Panteón Dolores","LINEA":"03","EST":"05","TIPO":"Intermedia","AÑO":2024,"Elevadores":"Sí","Guia_tact":"Sí","P_braile":"Sí","ALCALDIAS":"Miguel Hidalgo"},"geometry":{"type":"Point","coordinates":[-99.200968972966507,19.407303694196109,0.0]}},
{"type":"Feature","properties":{"SISTEMA":"STE Cablebús","NOMBRE":"Charrería","LINEA":"03","EST":"04","TIPO":"Intermedia","AÑO":2024,"Elevadores":"Sí","Guia_tact":"Sí","P_braile":"Sí","ALCALDIAS":"Miguel Hidalgo"},"geometry":{"type":"Point","coordinates":[-99.213007633317844,19.39968966372934,0.0]}}
]
}
