{
"type": "FeatureCollection",
"name": "ubicaciones_metrobus",
"crs": { "type": "name", "properties": { "name": "urn:ogc:def:crs:OGC:1.3:CRS84" } },
"features": [
{"type":"Feature","properties":{"SISTEMA":"Metrobús","NOMBRE":"París","LINEA":"07","EST":null,"TIPO":"Servicio temporal","ALCALDIAS":"Cuauhtémoc"},"geometry":{"type":"Point","coordinates":[-99.155905454971105,19.432394720045693,0.0]}},
{"type":"Feature","properties":{"SISTEMA":"Metrobús","NOMBRE":"Reforma","LINEA":"07","EST":null,"TIPO":"Servicio temporal","ALCALDIAS":"Cuauhtémoc"},"geometry":{"type":"Point","coordinates":[-99.158544250294241,19.431106483118526,0.0]}},
{"type":"Feature","properties":{"SISTEMA":"Metrobús","NOMBRE":"Hamburgo","LINEA":"07","EST":null,"TIPO":"Servicio temporal","ALCALDIAS":"Cuauhtémoc"},"geometry":{"type":"Point","coordinates":[-99.162797340753514,19.42917016143172,0.0]}},
{"type":"Feature","properties":{"SISTEMA":"Metrobús","NOMBRE":"El Ahuehuete","LINEA":"07","EST":null,"TIPO":"Servicio temporal","ALCALDIAS":"Cuauhtémoc"},"geometry":{"type":"Point","coordinates":[-99.165058632392089,19.428067900747724,0.0]}},
{"type":"Feature","properties":{"SISTEMA":"Metrobús","NOMBRE":"El Ángel","LINEA":"07","EST":null,"TIPO":"Servicio temporal","ALCALDIAS":"Cuauhtémoc"},"geometry":{"type":"Point","coordinates":[-99.168657535205938,19.42641814344347,0.0]}},
{"type":"Feature","properties":{"SISTEMA":"Metrobús","NOMBRE":"La Diana","LINEA":"07","EST":null,"TIPO":"Servicio temporal","ALCALDIAS":"Cuauhtémoc"},"geometry":{"type":"Point","coordinates":[-99.172513628313368,19.42458282932953,0.0]}},
{"type":"Feature","properties":{"SISTEMA":"Metrobús","NOMBRE":"Chapultepec","LINEA":"07","EST":null,"TIPO":"Servicio temporal","ALCALDIAS":"Cuauhtémoc"},"geometry":{"type":"Point","coordinates":[-99.174673607443438,19.423587082950952,0.0]}},
{"type":"Feature","properties":{"SISTEMA":"Metrobús","NOMBRE":"Alameda Tacubaya","LINEA":"07","EST":null,"TIPO":"Servicio temporal","ALCALDIAS":"Miguel Hidalgo"},"geometry":{"type":"Point","coordinates":[-99.185917458882528,19.401485341509581,0.0]}},
{"type":"Feature","properties":{"SISTEMA":"Metrobús","NOMBRE":"De La Salle","LINEA":"07","EST":null,"TIPO":"Servicio temporal","ALCALDIAS":"Cuauhtémoc / Miguel Hidalgo"},"geometry":{"type":"Point","coordinates":[-99.183466735168508,19.409020086326528,0.0]}},
{"type":"Feature","properties":{"SISTEMA":"Metrobús","NOMBRE":"De La Salle","LINEA":"07","EST":null,"TIPO":"Servicio temporal","ALCALDIAS":"Miguel Hidalgo"},"geometry":{"type":"Point","coordinates":[-99.184207758060012,19.408368343301472,0.0]}},
{"type":"Feature","properties":{"SISTEMA":"Metrobús","NOMBRE":"Chapultepec","LINEA":"07","EST":null,"TIPO":"Servicio temporal","ALCALDIAS":"Cuauhtémoc"},"geometry":{"type":"Point","coordinates":[-99.174258483099479,19.424061180828488,0.0]}},
{"type":"Feature","properties":{"SISTEMA":"Metrobús","NOMBRE":"La Diana","LINEA":"07","EST":null,"TIPO":"Servicio temporal","ALCALDIAS":"Cuauhtémoc"},"geometry":{"type":"Point","coordinates":[-99.170891970139479,19.425668289991535,0.0]}},
{"type":"Feature","properties":{"SISTEMA":"Metrobús","NOMBRE":"El Ángel","LINEA":"07","EST":null,"TIPO":"Servicio temporal","ALCALDIAS":"Cuauhtémoc"},"geometry":{"type":"Point","coordinates":[-99.168643620412624,19.426686259386592,0.0]}},
{"type":"Feature","properties":{"SISTEMA":"Metrobús","NOMBRE":"El Ahuehuete","LINEA":"07","EST":null,"TIPO":"Servicio temporal","ALCALDIAS":"Cuauhtémoc"},"geometry":{"type":"Point","coordinates":[-99.164834250688244,19.428497763979376,0.0]}},
{"type":"Feature","properties":{"SISTEMA":"Metrobús","NOMBRE":"Hamburgo","LINEA":"07","EST":null,"TIPO":"Servicio temporal","ALCALDIAS":"Cuauhtémoc"},"geometry":{"type":"Point","coordinates":[-99.161504809448317,19.430048764593089,0.0]}},
{"type":"Feature","properties":{"SISTEMA":"Metrobús","NOMBRE":"Reforma","LINEA":"07","EST":null,"TIPO":"Servicio temporal","ALCALDIAS":"Cuauhtémoc"},"geometry":{"type":"Point","coordinates":[-99.158705393611967,19.431433443435566,0.0]}},
{"type":"Feature","properties":{"SISTEMA":"Metrobús","NOMBRE":"París","LINEA":"07","EST":null,"TIPO":"Servicio temporal","ALCALDIAS":"Cuauhtémoc"},"geometry":{"type":"Point","coordinates":[-99.155958078571373,19.432661819890622,0.0]}},
{"type":"Feature","properties":{"SISTEMA":"Metrobús","NOMBRE":"Aeropuerto T1","LINEA":"04","EST":"41","TIPO":null,"ALCALDIAS":"Venustiano Carranza"},"geometry":{"type":"Point","coordinates":[-99.083666,19.435307,0.0]}},
{"type":"Feature","properties":{"SISTEMA":"Metrobús","NOMBRE":"Aeropuerto T2","LINEA":"04","EST":"42","TIPO":null,"ALCALDIAS":"Venustiano Carranza"},"geometry":{"type":"Point","coordinates":[-99.07725,19.421476,0.0]}},
{"type":"Feature","properties":{"SISTEMA":"Metrobús","NOMBRE":"Delegación Cuauhtémoc","LINEA":"04","EST":"02","TIPO":"Intermedia","ALCALDIAS":"Cuauhtémoc"},"geometry":{"type":"Point","coordinates":[-99.152416,19.442594,0.0]}},
{"type":"Feature","properties":{"SISTEMA":"Metrobús","NOMBRE":"Delegación Cuauhtémoc","LINEA":"04","EST":"48","TIPO":"Intermedia","ALCALDIAS":"Cuauhtémoc"},"geometry":{"type":"Point","coordinates":[-99.152454,19.442136,0.0]}},
{"type":"Feature","properties":{"SISTEMA":"Metrobús","NOMBRE":"México Tenochtitlan","LINEA":"04","EST":"03","TIPO":"Intermedia","ALCALDIAS":"Cuauhtémoc"},"geometry":{"type":"Point","coordinates":[-99.153269,19.439025,0.0]}},
{"type":"Feature","properties":{"SISTEMA":"Metrobús","NOMBRE":"México Tenochtitlan","LINEA":"04","EST":"49","TIPO":"Intermedia","ALCALDIAS":"Cuauhtémoc"},"geometry":{"type":"Point","coordinates":[-99.153457,19.438641,0.0]}},
{"type":"Feature","properties":{"SISTEMA":"Metrobús","NOMBRE":"Plaza de la República","LINEA":"04","EST":"18","TIPO":"Intermedia","ALCALDIAS":"Cuauhtémoc"},"geometry":{"type":"Point","coordinates":[-99.154138,19.436804,0.0]}},
{"type":"Feature","properties":{"SISTEMA":"Metrobús","NOMBRE":"Plaza de la República","LINEA":"04","EST":"60","TIPO":"Intermedia","ALCALDIAS":"Cuauhtémoc"},"geometry":{"type":"Point","coordinates":[-99.153982,19.437128,0.0]}},
{"type":"Feature","properties":{"SISTEMA":"Metrobús","NOMBRE":"Amajac","LINEA":"04","EST":"19","TIPO":"Transbordo","ALCALDIAS":"Cuauhtémoc"},"geometry":{"type":"Point","coordinates":[-99.153532,19.434159,0.0]}},
{"type":"Feature","properties":{"SISTEMA":"Metrobús","NOMBRE":"Amajac","LINEA":"04","EST":"70","TIPO":"Transbordo","ALCALDIAS":"Cuauhtémoc"},"geometry":{"type":"Point","coordinates":[-99.153371,19.435014,0.0]}},
{"type":"Feature","properties":{"SISTEMA":"Metrobús","NOMBRE":"Defensoría Pública","LINEA":"04","EST":"61","TIPO":"Intermedia","ALCALDIAS":"Cuauhtémoc"},"geometry":{"type":"Point","coordinates":[-99.151011,19.433364,0.0]}},
{"type":"Feature","properties":{"SISTEMA":"Metrobús","NOMBRE":"Defensoría Pública","LINEA":"04","EST":"20","TIPO":"Intermedia","ALCALDIAS":"Cuauhtémoc"},"geometry":{"type":"Point","coordinates":[-99.15063,19.433106,0.0]}},
{"type":"Feature","properties":{"SISTEMA":"Metrobús","NOMBRE":"Vocacional 5","LINEA":"04","EST":"21","TIPO":"Intermedia","ALCALDIAS":"Cuauhtémoc"},"geometry":{"type":"Point","coordinates":[-99.150217,19.431589,0.0]}},
{"type":"Feature","properties":{"SISTEMA":"Metrobús","NOMBRE":"Vocacional 5","LINEA":"04","EST":"62","TIPO":"Intermedia","ALCALDIAS":"Cuauhtémoc"},"geometry":{"type":"Point","coordinates":[-99.150952,19.431756,0.0]}},
{"type":"Feature","properties":{"SISTEMA":"Metrobús","NOMBRE":"Juárez","LINEA":"04","EST":"22","TIPO":"Transbordo","ALCALDIAS":"Cuauhtémoc"},"geometry":{"type":"Point","coordinates":[-99.148387,19.431305,0.0]}},
{"type":"Feature","properties":{"SISTEMA":"Metrobús","NOMBRE":"Juárez","LINEA":"04","EST":"63","TIPO":"Transbordo","ALCALDIAS":"Cuauhtémoc"},"geometry":{"type":"Point","coordinates":[-99.147744,19.43126,0.0]}},
{"type":"Feature","properties":{"SISTEMA":"Metrobús","NOMBRE":"Mercados San Juan","LINEA":"04","EST":"23","TIPO":"Intermedia","ALCALDIAS":"Cuauhtémoc"},"geometry":{"type":"Point","coordinates":[-99.143549,19.430607,0.0]}},
{"type":"Feature","properties":{"SISTEMA":"Metrobús","NOMBRE":"Mercados San Juan","LINEA":"04","EST":"64","TIPO":"Intermedia","ALCALDIAS":"Cuauhtémoc"},"geometry":{"type":"Point","coordinates":[-99.144654,19.430772,0.0]}},
{"type":"Feature","properties":{"SISTEMA":"Metrobús","NOMBRE":"Eje Central","LINEA":"04","EST":"24","TIPO":"Intermedia","ALCALDIAS":"Cuauhtémoc"},"geometry":{"type":"Point","coordinates":[-99.141929,19.430334,0.0]}},
{"type":"Feature","properties":{"SISTEMA":"Metrobús","NOMBRE":"Eje Central","LINEA":"04","EST":"65","TIPO":"Intermedia","ALCALDIAS":"Cuauhtémoc"},"geometry":{"type":"Point","coordinates":[-99.140797,19.430304,0.0]}},
{"type":"Feature","properties":{"SISTEMA":"Metrobús","NOMBRE":"El Salvador","LINEA":"04","EST":"25","TIPO":"Intermedia","ALCALDIAS":"Cuauhtémoc"},"geometry":{"type":"Point","coordinates":[-99.138538,19.429874,0.0]}},
{"type":"Feature","properties":{"SISTEMA":"Metrobús","NOMBRE":"El Salvador","LINEA":"04","EST":"66","TIPO":"Intermedia","ALCALDIAS":"Cuauhtémoc"},"geometry":{"type":"Point","coordinates":[-99.139418,19.430071,0.0]}},
{"type":"Feature","properties":{"SISTEMA":"Metrobús","NOMBRE":"Isabel La Católica","LINEA":"04","EST":"26","TIPO":"Intermedia","ALCALDIAS":"Cuauhtémoc"},"geometry":{"type":"Point","coordinates":[-99.137009,19.429616,0.0]}},
{"type":"Feature","properties":{"SISTEMA":"Metrobús","NOMBRE":"Isabel La Católica","LINEA":"04","EST":"67","TIPO":"Intermedia","ALCALDIAS":"Cuauhtémoc"},"geometry":{"type":"Point","coordinates":[-99.136586,19.429692,0.0]}},
{"type":"Feature","properties":{"SISTEMA":"Metrobús","NOMBRE":"20 de Noviembre","LINEA":"04","EST":"44","TIPO":"Intermedia","ALCALDIAS":"Cuauhtémoc"},"geometry":{"type":"Point","coordinates":[-99.1341665,19.4292007,0.0]}},
{"type":"Feature","properties":{"SISTEMA":"Metrobús","NOMBRE":"Museo de la Ciudad","LINEA":"04","EST":"27","TIPO":"Intermedia","ALCALDIAS":"Cuauhtémoc"},"geometry":{"type":"Point","coordinates":[-99.1328898,19.4290292,0.0]}},
{"type":"Feature","properties":{"SISTEMA":"Metrobús","NOMBRE":"Pino Suárez","LINEA":"04","EST":"28","TIPO":"Intermedia","ALCALDIAS":"Cuauhtémoc"},"geometry":{"type":"Point","coordinates":[-99.132782,19.426661,0.0]}},
{"type":"Feature","properties":{"SISTEMA":"Metrobús","NOMBRE":"Las Cruces","LINEA":"04","EST":"30","TIPO":"Intermedia","ALCALDIAS":"Cuauhtémoc"},"geometry":{"type":"Point","coordinates":[-99.129918,19.426155,0.0]}},
{"type":"Feature","properties":{"SISTEMA":"Metrobús","NOMBRE":"San Pablo","LINEA":"04","EST":"46","TIPO":"Intermedia","ALCALDIAS":"Cuauhtémoc"},"geometry":{"type":"Point","coordinates":[-99.130771,19.4255331,0.0]}},
{"type":"Feature","properties":{"SISTEMA":"Metrobús","NOMBRE":"La Merced","LINEA":"04","EST":"32","TIPO":"Intermedia","ALCALDIAS":"Cuauhtémoc"},"geometry":{"type":"Point","coordinates":[-99.1259158,19.4256392,0.0]}},
{"type":"Feature","properties":{"SISTEMA":"Metrobús","NOMBRE":"Mercado de Sonora Sur","LINEA":"04","EST":"47","TIPO":"Intermedia","ALCALDIAS":"Cuauhtémoc"},"geometry":{"type":"Point","coordinates":[-99.1267417,19.4231001,0.0]}},
{"type":"Feature","properties":{"SISTEMA":"Metrobús","NOMBRE":"Cecilio Robelo","LINEA":"04","EST":"34","TIPO":"Intermedia","ALCALDIAS":"Venustiano Carranza"},"geometry":{"type":"Point","coordinates":[-99.11987,19.425174,0.0]}},
{"type":"Feature","properties":{"SISTEMA":"Metrobús","NOMBRE":"Cecilio Robelo","LINEA":"04","EST":"71","TIPO":"Intermedia","ALCALDIAS":"Venustiano Carranza"},"geometry":{"type":"Point","coordinates":[-99.119044,19.425483,0.0]}},
{"type":"Feature","properties":{"SISTEMA":"Metrobús","NOMBRE":"Ing. Eduardo Molina","LINEA":"04","EST":"35","TIPO":"Intermedia","ALCALDIAS":"Venustiano Carranza"},"geometry":{"type":"Point","coordinates":[-99.116228,19.427177,0.0]}},
{"type":"Feature","properties":{"SISTEMA":"Metrobús","NOMBRE":"Hospital Balbuena","LINEA":"04","EST":"36","TIPO":"Intermedia","ALCALDIAS":"Venustiano Carranza"},"geometry":{"type":"Point","coordinates":[-99.116153,19.425098,0.0]}},
{"type":"Feature","properties":{"SISTEMA":"Metrobús","NOMBRE":"Moctezuma","LINEA":"04","EST":"37","TIPO":"Transbordo","ALCALDIAS":"Venustiano Carranza"},"geometry":{"type":"Point","coordinates":[-99.111979,19.426894,0.0]}},
{"type":"Feature","properties":{"SISTEMA":"Metrobús","NOMBRE":"Terminal San Lázaro","LINEA":"04","EST":"43","TIPO":null,"ALCALDIAS":"Venustiano Carranza"},"geometry":{"type":"Point","coordinates":[-99.115171,19.430911,0.0]}},
{"type":"Feature","properties":{"SISTEMA":"Metrobús","NOMBRE":"Terminal San Lázaro","LINEA":"04","EST":"68","TIPO":null,"ALCALDIAS":"Venustiano Carranza"},"geometry":{"type":"Point","coordinates":[-99.115428,19.431116,0.0]}},
{"type":"Feature","properties":{"SISTEMA":"Metrobús","NOMBRE":"Archivo General de la Nación","LINEA":"04","EST":"14","TIPO":"Transbordo","ALCALDIAS":"Venustiano Carranza"},"geometry":{"type":"Point","coordinates":[-99.115176,19.435363,0.0]}},
{"type":"Feature","properties":{"SISTEMA":"Metrobús","NOMBRE":"Archivo General de la Nación","LINEA":"04","EST":"59","TIPO":"Transbordo","ALCALDIAS":"Venustiano Carranza"},"geometry":{"type":"Point","coordinates":[-99.114618,19.434968,0.0]}},
{"type":"Feature","properties":{"SISTEMA":"Metrobús","NOMBRE":"Morelos","LINEA":"04","EST":"13","TIPO":"Intermedia","ALCALDIAS":"Venustiano Carranza"},"geometry":{"type":"Point","coordinates":[-99.119001,19.435813,0.0]}},
{"type":"Feature","properties":{"SISTEMA":"Metrobús","NOMBRE":"Morelos","LINEA":"04","EST":"58","TIPO":"Intermedia","ALCALDIAS":"Venustiano Carranza"},"geometry":{"type":"Point","coordinates":[-99.118245,19.435788,0.0]}},
{"type":"Feature","properties":{"SISTEMA":"Metrobús","NOMBRE":"Ferrocarril de Cintura","LINEA":"04","EST":"12","TIPO":"Intermedia","ALCALDIAS":"Venustiano Carranza"},"geometry":{"type":"Point","coordinates":[-99.121614,19.436,0.0]}},
{"type":"Feature","properties":{"SISTEMA":"Metrobús","NOMBRE":"Ferrocarril de Cintura","LINEA":"04","EST":"57","TIPO":"Intermedia","ALCALDIAS":"Venustiano Carranza"},"geometry":{"type":"Point","coordinates":[-99.120809,19.436142,0.0]}},
{"type":"Feature","properties":{"SISTEMA":"Metrobús","NOMBRE":"Mixcalco","LINEA":"04","EST":"11","TIPO":"Intermedia","ALCALDIAS":"Cuauhtémoc / Venustiano Carranza"},"geometry":{"type":"Point","coordinates":[-99.123413,19.436357,0.0]}},
{"type":"Feature","properties":{"SISTEMA":"Metrobús","NOMBRE":"Mixcalco","LINEA":"04","EST":"56","TIPO":"Intermedia","ALCALDIAS":"Cuauhtémoc / Venustiano Carranza"},"geometry":{"type":"Point","coordinates":[-99.124156,19.436324,0.0]}},
{"type":"Feature","properties":{"SISTEMA":"Metrobús","NOMBRE":"Teatro del Pueblo","LINEA":"04","EST":"10","TIPO":"Intermedia","ALCALDIAS":"Cuauhtémoc"},"geometry":{"type":"Point","coordinates":[-99.127622,19.436769,0.0]}},
{"type":"Feature","properties":{"SISTEMA":"Metrobús","NOMBRE":"Teatro del Pueblo","LINEA":"04","EST":"55","TIPO":"Intermedia","ALCALDIAS":"Cuauhtémoc"},"geometry":{"type":"Point","coordinates":[-99.127042,19.43685,0.0]}},
{"type":"Feature","properties":{"SISTEMA":"Metrobús","NOMBRE":"República de Argentina","LINEA":"04","EST":"54","TIPO":"Intermedia","ALCALDIAS":"Cuauhtémoc"},"geometry":{"type":"Point","coordinates":[-99.131999,19.437406,0.0]}},
{"type":"Feature","properties":{"SISTEMA":"Metrobús","NOMBRE":"República de Argentina","LINEA":"04","EST":"09","TIPO":"Intermedia","ALCALDIAS":"Cuauhtémoc"},"geometry":{"type":"Point","coordinates":[-99.131194,19.437356,0.0]}},
{"type":"Feature","properties":{"SISTEMA":"Metrobús","NOMBRE":"República de Chile","LINEA":"04","EST":"08","TIPO":"Intermedia","ALCALDIAS":"Cuauhtémoc"},"geometry":{"type":"Point","coordinates":[-99.135896,19.437965,0.0]}},
{"type":"Feature","properties":{"SISTEMA":"Metrobús","NOMBRE":"República de Chile","LINEA":"04","EST":"69","TIPO":"Intermedia","ALCALDIAS":"Cuauhtémoc"},"geometry":{"type":"Point","coordinates":[-99.135025,19.437884,0.0]}},
{"type":"Feature","properties":{"SISTEMA":"Metrobús","NOMBRE":"Teatro Blanquita","LINEA":"04","EST":"07","TIPO":"Intermedia","ALCALDIAS":"Cuauhtémoc"},"geometry":{"type":"Point","coordinates":[-99.139973,19.438636,0.0]}},
{"type":"Feature","properties":{"SISTEMA":"Metrobús","NOMBRE":"Teatro Blanquita","LINEA":"04","EST":"53","TIPO":"Intermedia","ALCALDIAS":"Cuauhtémoc"},"geometry":{"type":"Point","coordinates":[-99.139085,19.438428,0.0]}},
{"type":"Feature","properties":{"SISTEMA":"Metrobús","NOMBRE":"Bellas Artes","LINEA":"04","EST":"06","TIPO":"Intermedia","ALCALDIAS":"Cuauhtémoc"},"geometry":{"type":"Point","coordinates":[-99.141717,19.436405,0.0]}},
{"type":"Feature","properties":{"SISTEMA":"Metrobús","NOMBRE":"Bellas Artes","LINEA":"04","EST":"52","TIPO":"Intermedia","ALCALDIAS":"Cuauhtémoc"},"geometry":{"type":"Point","coordinates":[-99.141821,19.436407,0.0]}},
{"type":"Feature","properties":{"SISTEMA":"Metrobús","NOMBRE":"Hidalgo","LINEA":"04","EST":"05","TIPO":"Transbordo","ALCALDIAS":"Cuauhtémoc"},"geometry":{"type":"Point","coordinates":[-99.14615,19.437298,0.0]}},
{"type":"Feature","properties":{"SISTEMA":"Metrobús","NOMBRE":"Hidalgo","LINEA":"04","EST":"51","TIPO":"Transbordo","ALCALDIAS":"Cuauhtémoc"},"geometry":{"type":"Point","coordinates":[-99.146212,19.43728,0.0]}},
{"type":"Feature","properties":{"SISTEMA":"Metrobús","NOMBRE":"Museo San Carlos","LINEA":"04","EST":"04","TIPO":"Intermedia","ALCALDIAS":"Cuauhtémoc"},"geometry":{"type":"Point","coordinates":[-99.150783,19.438274,0.0]}},
{"type":"Feature","properties":{"SISTEMA":"Metrobús","NOMBRE":"Museo San Carlos","LINEA":"04","EST":"50","TIPO":"Intermedia","ALCALDIAS":"Cuauhtémoc"},"geometry":{"type":"Point","coordinates":[-99.150603,19.438226,0.0]}},
{"type":"Feature","properties":{"SISTEMA":"Metrobús","NOMBRE":"Buenavista","LINEA":"04","EST":"01","TIPO":"Terminal / Transbordo","ALCALDIAS":"Cuauhtémoc"},"geometry":{"type":"Point","coordinates":[-99.152271,19.444863,0.0]}},
{"type":"Feature","properties":{"SISTEMA":"Metrobús","NOMBRE":"Pantitlán","LINEA":"04","EST":"38","TIPO":"Terminal","ALCALDIAS":"Venustiano Carranza"},"geometry":{"type":"Point","coordinates":[-99.0734542,19.4170652,0.0]}},
{"type":"Feature","properties":{"SISTEMA":"Metrobús","NOMBRE":"Calle 6","LINEA":"04","EST":"39","TIPO":"Intermedia","ALCALDIAS":"Venustiano Carranza / Iztacalco"},"geometry":{"type":"Point","coordinates":[-99.0583981,19.4211477,0.0]}},
{"type":"Feature","properties":{"SISTEMA":"Metrobús","NOMBRE":"Alameda Oriente","LINEA":"04","EST":"40","TIPO":"Terminal","ALCALDIAS":"Venustiano Carranza / Estado de México - Nezahualcóyotl"},"geometry":{"type":"Point","coordinates":[-99.0532703,19.4307516,0.0]}},
{"type":"Feature","properties":{"SISTEMA":"Metrobús","NOMBRE":"Mercado de Sonora","LINEA":"04","EST":"33","TIPO":"Intermedia","ALCALDIAS":"Venustiano Carranza"},"geometry":{"type":"Point","coordinates":[-99.123411,19.423241,0.0]}},
{"type":"Feature","properties":{"SISTEMA":"Metrobús","NOMBRE":"Pino Suárez Sur","LINEA":"04","EST":"45","TIPO":"Intermedia","ALCALDIAS":"Cuauhtémoc"},"geometry":{"type":"Point","coordinates":[-99.1337852,19.4260949,0.0]}},
{"type":"Feature","properties":{"SISTEMA":"Metrobús","NOMBRE":"Dep. 18 de Marzo","LINEA":"01","EST":"02","TIPO":"Transbordo","ALCALDIAS":"Gustavo A. Madero"},"geometry":{"type":"Point","coordinates":[-99.124531698777062,19.486285379281284,0.0]}},
{"type":"Feature","properties":{"SISTEMA":"Metrobús","NOMBRE":"Eúzkaro","LINEA":"01","EST":"03","TIPO":"Intermedia","ALCALDIAS":"Gustavo A. Madero"},"geometry":{"type":"Point","coordinates":[-99.127632233876966,19.482519101724726,0.0]}},
{"type":"Feature","properties":{"SISTEMA":"Metrobús","NOMBRE":"Potrero","LINEA":"01","EST":"04","TIPO":"Intermedia","ALCALDIAS":"Gustavo A. Madero"},"geometry":{"type":"Point","coordinates":[-99.132468238436829,19.476638471332368,0.0]}},
{"type":"Feature","properties":{"SISTEMA":"Metrobús","NOMBRE":"La Raza","LINEA":"01","EST":"05","TIPO":"Transbordo","ALCALDIAS":"Gustavo A. Madero"},"geometry":{"type":"Point","coordinates":[-99.138986664144284,19.468700050075963,0.0]}},
{"type":"Feature","properties":{"SISTEMA":"Metrobús","NOMBRE":"Circuito","LINEA":"01","EST":"06","TIPO":"Transbordo","ALCALDIAS":"Cuauhtémoc"},"geometry":{"type":"Point","coordinates":[-99.144006768215618,19.462612766654022,0.0]}},
{"type":"Feature","properties":{"SISTEMA":"Metrobús","NOMBRE":"San Simón","LINEA":"01","EST":"07","TIPO":"Intermedia","ALCALDIAS":"Cuauhtémoc"},"geometry":{"type":"Point","coordinates":[-99.146424345073157,19.459632536014841,0.0]}},
{"type":"Feature","properties":{"SISTEMA":"Metrobús","NOMBRE":"Manuel González","LINEA":"01","EST":"08","TIPO":"Intermedia","ALCALDIAS":"Cuauhtémoc"},"geometry":{"type":"Point","coordinates":[-99.149388515826146,19.456735562915632,0.0]}},
{"type":"Feature","properties":{"SISTEMA":"Metrobús","NOMBRE":"Buenavista","LINEA":"01","EST":"09","TIPO":"Transbordo","ALCALDIAS":"Cuauhtémoc"},"geometry":{"type":"Point","coordinates":[-99.153130665258146,19.446837951491197,0.0]}},
{"type":"Feature","properties":{"SISTEMA":"Metrobús","NOMBRE":"El Chopo","LINEA":"01","EST":"10","TIPO":"Intermedia","ALCALDIAS":"Cuauhtémoc"},"geometry":{"type":"Point","coordinates":[-99.154411133824539,19.443345082590103,0.0]}},
{"type":"Feature","properties":{"SISTEMA":"Metrobús","NOMBRE":"Revolución","LINEA":"01","EST":"11","TIPO":"Intermedia","ALCALDIAS":"Cuauhtémoc"},"geometry":{"type":"Point","coordinates":[-99.155410379801921,19.440352788005459,0.0]}},
{"type":"Feature","properties":{"SISTEMA":"Metrobús","NOMBRE":"Plaza de la República","LINEA":"01","EST":"12","TIPO":"Transbordo","ALCALDIAS":"Cuauhtémoc"},"geometry":{"type":"Point","coordinates":[-99.157318741940998,19.436045966675938,0.0]}},
{"type":"Feature","properties":{"SISTEMA":"Metrobús","NOMBRE":"Reforma","LINEA":"01","EST":"13","TIPO":"Transbordo","ALCALDIAS":"Cuauhtémoc"},"geometry":{"type":"Point","coordinates":[-99.158714509731368,19.432899100304862,0.0]}},
{"type":"Feature","properties":{"SISTEMA":"Metrobús","NOMBRE":"Hamburgo","LINEA":"01","EST":"14","TIPO":"Transbordo","ALCALDIAS":"Cuauhtémoc"},"geometry":{"type":"Point","coordinates":[-99.161235417910063,19.427524408488075,0.0]}},
{"type":"Feature","properties":{"SISTEMA":"Metrobús","NOMBRE":"Insurgentes","LINEA":"01","EST":"15","TIPO":"Terminal","ALCALDIAS":"Cuauhtémoc"},"geometry":{"type":"Point","coordinates":[-99.162883816561504,19.423720529286115,0.0]}},
{"type":"Feature","properties":{"SISTEMA":"Metrobús","NOMBRE":"Durango","LINEA":"01","EST":"16","TIPO":"Intermedia","ALCALDIAS":"Cuauhtémoc"},"geometry":{"type":"Point","coordinates":[-99.164055629466972,19.419932751962484,0.0]}},
{"type":"Feature","properties":{"SISTEMA":"Metrobús","NOMBRE":"Álvaro Obregón","LINEA":"01","EST":"17","TIPO":"Intermedia","ALCALDIAS":"Cuauhtémoc"},"geometry":{"type":"Point","coordinates":[-99.165055816293773,19.416550991835987,0.0]}},
{"type":"Feature","properties":{"SISTEMA":"Metrobús","NOMBRE":"Sonora","LINEA":"01","EST":"18","TIPO":"Intermedia","ALCALDIAS":"Cuauhtémoc"},"geometry":{"type":"Point","coordinates":[-99.16612421930985,19.413271925410818,0.0]}},
{"type":"Feature","properties":{"SISTEMA":"Metrobús","NOMBRE":"Campeche","LINEA":"01","EST":"19","TIPO":"Intermedia","ALCALDIAS":"Cuauhtémoc"},"geometry":{"type":"Point","coordinates":[-99.167265593197101,19.409768753876367,0.0]}},
{"type":"Feature","properties":{"SISTEMA":"Metrobús","NOMBRE":"Chilpancingo","LINEA":"01","EST":"20","TIPO":"Intermedia","ALCALDIAS":"Cuauhtémoc"},"geometry":{"type":"Point","coordinates":[-99.168304860995363,19.406578833117695,0.0]}},
{"type":"Feature","properties":{"SISTEMA":"Metrobús","NOMBRE":"Nuevo León","LINEA":"01","EST":"21","TIPO":"Transbordo","ALCALDIAS":"Cuauhtémoc"},"geometry":{"type":"Point","coordinates":[-99.169783855731154,19.402043181971649,0.0]}},
{"type":"Feature","properties":{"SISTEMA":"Metrobús","NOMBRE":"La Piedad","LINEA":"01","EST":"22","TIPO":"Transbordo","ALCALDIAS":"Benito Juárez"},"geometry":{"type":"Point","coordinates":[-99.17111120244833,19.397970337893266,0.0]}},
{"type":"Feature","properties":{"SISTEMA":"Metrobús","NOMBRE":"Polifórum","LINEA":"01","EST":"23","TIPO":"Transbordo","ALCALDIAS":"Benito Juárez"},"geometry":{"type":"Point","coordinates":[-99.172625018595184,19.393299203269635,0.0]}},
{"type":"Feature","properties":{"SISTEMA":"Metrobús","NOMBRE":"Nápoles","LINEA":"01","EST":"24","TIPO":"Transbordo","ALCALDIAS":"Benito Juárez"},"geometry":{"type":"Point","coordinates":[-99.173794411452704,19.389690652430065,0.0]}},
{"type":"Feature","properties":{"SISTEMA":"Metrobús","NOMBRE":"Colonia del Valle","LINEA":"01","EST":"25","TIPO":"Transbordo","ALCALDIAS":"Benito Juárez"},"geometry":{"type":"Point","coordinates":[-99.175092070461318,19.385686102673304,0.0]}},
{"type":"Feature","properties":{"SISTEMA":"Metrobús","NOMBRE":"Cd. de los Deportes","LINEA":"01","EST":"26","TIPO":"Intermedia","ALCALDIAS":"Benito Juárez"},"geometry":{"type":"Point","coordinates":[-99.176140161282774,19.382451565772385,0.0]}},
{"type":"Feature","properties":{"SISTEMA":"Metrobús","NOMBRE":"Parque Hundido","LINEA":"01","EST":"27","TIPO":"Intermedia","ALCALDIAS":"Benito Juárez"},"geometry":{"type":"Point","coordinates":[-99.177068402693493,19.379586786836672,0.0]}},
{"type":"Feature","properties":{"SISTEMA":"Metrobús","NOMBRE":"Félix Cuevas","LINEA":"01","EST":"28","TIPO":"Intermedia","ALCALDIAS":"Benito Juárez"},"geometry":{"type":"Point","coordinates":[-99.178796527600952,19.37425309507362,0.0]}},
{"type":"Feature","properties":{"SISTEMA":"Metrobús","NOMBRE":"Río Churubusco","LINEA":"01","EST":"29","TIPO":"Intermedia","ALCALDIAS":"Benito Juárez"},"geometry":{"type":"Point","coordinates":[-99.180569811026075,19.368779651326172,0.0]}},
{"type":"Feature","properties":{"SISTEMA":"Metrobús","NOMBRE":"Teatro de los Insurgentes","LINEA":"01","EST":"30","TIPO":"Intermedia","ALCALDIAS":"Benito Juárez"},"geometry":{"type":"Point","coordinates":[-99.181825200260519,19.3649263909228,0.0]}},
{"type":"Feature","properties":{"SISTEMA":"Metrobús","NOMBRE":"José María Velasco","LINEA":"01","EST":"31","TIPO":"Intermedia","ALCALDIAS":"Benito Juárez / Álvaro Obregón"},"geometry":{"type":"Point","coordinates":[-99.182849774971388,19.361758989492579,0.0]}},
{"type":"Feature","properties":{"SISTEMA":"Metrobús","NOMBRE":"Francia","LINEA":"01","EST":"32","TIPO":"Intermedia","ALCALDIAS":"Álvaro Obregón"},"geometry":{"type":"Point","coordinates":[-99.183911556265144,19.358476430441907,0.0]}},
{"type":"Feature","properties":{"SISTEMA":"Metrobús","NOMBRE":"Olivo","LINEA":"01","EST":"33","TIPO":"Intermedia","ALCALDIAS":"Álvaro Obregón"},"geometry":{"type":"Point","coordinates":[-99.18515664834338,19.35462698244498,0.0]}},
{"type":"Feature","properties":{"SISTEMA":"Metrobús","NOMBRE":"Altavista","LINEA":"01","EST":"34","TIPO":"Intermedia","ALCALDIAS":"Álvaro Obregón"},"geometry":{"type":"Point","coordinates":[-99.186356402038257,19.350903849361121,0.0]}},
{"type":"Feature","properties":{"SISTEMA":"Metrobús","NOMBRE":"La Bombilla","LINEA":"01","EST":"35","TIPO":"Intermedia","ALCALDIAS":"Álvaro Obregón"},"geometry":{"type":"Point","coordinates":[-99.187726217936813,19.346818513886824,0.0]}},
{"type":"Feature","properties":{"SISTEMA":"Metrobús","NOMBRE":"Doctor Gálvez","LINEA":"01","EST":"36","TIPO":"Terminal","ALCALDIAS":"Álvaro Obregón"},"geometry":{"type":"Point","coordinates":[-99.1900369636448,19.340707214064032,0.0]}},
{"type":"Feature","properties":{"SISTEMA":"Metrobús","NOMBRE":"Cd. Universitaria","LINEA":"01","EST":"37","TIPO":"Intermedia","ALCALDIAS":"Coyoacán"},"geometry":{"type":"Point","coordinates":[-99.188472950777168,19.322947364177551,0.0]}},
{"type":"Feature","properties":{"SISTEMA":"Metrobús","NOMBRE":"C.C.U.","LINEA":"01","EST":"38","TIPO":"Intermedia","ALCALDIAS":"Coyoacán"},"geometry":{"type":"Point","coordinates":[-99.187526952614562,19.315162166987157,0.0]}},
{"type":"Feature","properties":{"SISTEMA":"Metrobús","NOMBRE":"Perisur","LINEA":"01","EST":"39","TIPO":"Intermedia","ALCALDIAS":"Coyoacán"},"geometry":{"type":"Point","coordinates":[-99.186126697490764,19.304109632052686,0.0]}},
{"type":"Feature","properties":{"SISTEMA":"Metrobús","NOMBRE":"Villa Olímpica","LINEA":"01","EST":"40","TIPO":"Intermedia","ALCALDIAS":"Tlalpan"},"geometry":{"type":"Point","coordinates":[-99.185514812123529,19.299091764377572,0.0]}},
{"type":"Feature","properties":{"SISTEMA":"Metrobús","NOMBRE":"Corregidora","LINEA":"01","EST":"41","TIPO":"Intermedia","ALCALDIAS":"Tlalpan"},"geometry":{"type":"Point","coordinates":[-99.18103173192884,19.294070084678502,0.0]}},
{"type":"Feature","properties":{"SISTEMA":"Metrobús","NOMBRE":"Ayuntamiento","LINEA":"01","EST":"42","TIPO":"Intermedia","ALCALDIAS":"Tlalpan"},"geometry":{"type":"Point","coordinates":[-99.177536690264304,19.292595463978948,0.0]}},
{"type":"Feature","properties":{"SISTEMA":"Metrobús","NOMBRE":"Fuentes Brotantes","LINEA":"01","EST":"43","TIPO":"Intermedia","ALCALDIAS":"Tlalpan"},"geometry":{"type":"Point","coordinates":[-99.174597571640106,19.288103587844745,0.0]}},
{"type":"Feature","properties":{"SISTEMA":"Metrobús","NOMBRE":"Santa Úrsula","LINEA":"01","EST":"44","TIPO":"Intermedia","ALCALDIAS":"Tlalpan"},"geometry":{"type":"Point","coordinates":[-99.175301074628635,19.283262764240369,0.0]}},
{"type":"Feature","properties":{"SISTEMA":"Metrobús","NOMBRE":"La Joya","LINEA":"01","EST":"45","TIPO":"Intermedia","ALCALDIAS":"Tlalpan"},"geometry":{"type":"Point","coordinates":[-99.169992573130386,19.280322133742757,0.0]}},
{"type":"Feature","properties":{"SISTEMA":"Metrobús","NOMBRE":"El Caminero","LINEA":"01","EST":"46","TIPO":"Terminal","ALCALDIAS":"Tlalpan"},"geometry":{"type":"Point","coordinates":[-99.169077651687871,19.27931377110038,0.0]}},
{"type":"Feature","properties":{"SISTEMA":"Metrobús","NOMBRE":"Tacubaya","LINEA":"02","EST":"01","TIPO":"Terminal","ALCALDIAS":"Miguel Hidalgo"},"geometry":{"type":"Point","coordinates":[-99.187007763261178,19.401994760429709,0.0]}},
{"type":"Feature","properties":{"SISTEMA":"Metrobús","NOMBRE":"Parque Lira","LINEA":"02","EST":"02","TIPO":"Intermedia","ALCALDIAS":"Miguel Hidalgo"},"geometry":{"type":"Point","coordinates":[-99.189104363520798,19.407793172832058,0.0]}},
{"type":"Feature","properties":{"SISTEMA":"Metrobús","NOMBRE":"Antonio Maceo","LINEA":"02","EST":"03","TIPO":"Intermedia","ALCALDIAS":"Miguel Hidalgo"},"geometry":{"type":"Point","coordinates":[-99.185900865781136,19.404874624595099,0.0]}},
{"type":"Feature","properties":{"SISTEMA":"Metrobús","NOMBRE":"De la Salle","LINEA":"02","EST":"04","TIPO":"Intermedia","ALCALDIAS":"Cuauhtémoc / Miguel Hidalgo"},"geometry":{"type":"Point","coordinates":[-99.183508848739166,19.407589548910526,0.0]}},
{"type":"Feature","properties":{"SISTEMA":"Metrobús","NOMBRE":"Patriotismo","LINEA":"02","EST":"05","TIPO":"Intermedia","ALCALDIAS":"Cuauhtémoc / Miguel Hidalgo"},"geometry":{"type":"Point","coordinates":[-99.177371481203267,19.405566764488491,0.0]}},
{"type":"Feature","properties":{"SISTEMA":"Metrobús","NOMBRE":"Escandón","LINEA":"02","EST":"06","TIPO":"Intermedia","ALCALDIAS":"Cuauhtémoc / Miguel Hidalgo"},"geometry":{"type":"Point","coordinates":[-99.173828899029203,19.404409851760686,0.0]}},
{"type":"Feature","properties":{"SISTEMA":"Metrobús","NOMBRE":"Nuevo León","LINEA":"02","EST":"07","TIPO":"Transbordo","ALCALDIAS":"Cuauhtémoc / Miguel Hidalgo"},"geometry":{"type":"Point","coordinates":[-99.170407934115872,19.403500674595442,0.0]}},
{"type":"Feature","properties":{"SISTEMA":"Metrobús","NOMBRE":"Viaducto","LINEA":"02","EST":"08","TIPO":"Intermedia","ALCALDIAS":"Cuauhtémoc / Benito Juárez"},"geometry":{"type":"Point","coordinates":[-99.168093340447896,19.401314543451836,0.0]}},
{"type":"Feature","properties":{"SISTEMA":"Metrobús","NOMBRE":"Amores","LINEA":"02","EST":"09","TIPO":"Intermedia","ALCALDIAS":"Benito Juárez"},"geometry":{"type":"Point","coordinates":[-99.163815747597212,19.396878357792495,0.0]}},
{"type":"Feature","properties":{"SISTEMA":"Metrobús","NOMBRE":"Etiopía","LINEA":"02","EST":"10","TIPO":"Terminal / Transbordo","ALCALDIAS":"Benito Juárez"},"geometry":{"type":"Point","coordinates":[-99.155001523337418,19.395841134451047,0.0]}},
{"type":"Feature","properties":{"SISTEMA":"Metrobús","NOMBRE":"Doctor Vértiz","LINEA":"02","EST":"11","TIPO":"Intermedia","ALCALDIAS":"Benito Juárez"},"geometry":{"type":"Point","coordinates":[-99.151707679123987,19.395607559960212,0.0]}},
{"type":"Feature","properties":{"SISTEMA":"Metrobús","NOMBRE":"Centro SCOP","LINEA":"02","EST":"12","TIPO":"Intermedia","ALCALDIAS":"Benito Juárez"},"geometry":{"type":"Point","coordinates":[-99.146755680440108,19.395248034972724,0.0]}},
{"type":"Feature","properties":{"SISTEMA":"Metrobús","NOMBRE":"Álamos","LINEA":"02","EST":"13","TIPO":"Intermedia","ALCALDIAS":"Benito Juárez"},"geometry":{"type":"Point","coordinates":[-99.142942796851443,19.394753096944751,0.0]}},
{"type":"Feature","properties":{"SISTEMA":"Metrobús","NOMBRE":"Xola","LINEA":"02","EST":"14","TIPO":"Intermedia","ALCALDIAS":"Benito Juárez"},"geometry":{"type":"Point","coordinates":[-99.140251370737133,19.394365049136049,0.0]}},
{"type":"Feature","properties":{"SISTEMA":"Metrobús","NOMBRE":"Las Américas","LINEA":"02","EST":"15","TIPO":"Intermedia","ALCALDIAS":"Benito Juárez"},"geometry":{"type":"Point","coordinates":[-99.134349084081421,19.393459454690095,0.0]}},
{"type":"Feature","properties":{"SISTEMA":"Metrobús","NOMBRE":"Andrés Molina Enríquez","LINEA":"02","EST":"16","TIPO":"Intermedia","ALCALDIAS":"Iztacalco"},"geometry":{"type":"Point","coordinates":[-99.129700104868903,19.397677434417723,0.0]}},
{"type":"Feature","properties":{"SISTEMA":"Metrobús","NOMBRE":"La Viga","LINEA":"02","EST":"17","TIPO":"Intermedia","ALCALDIAS":"Iztacalco"},"geometry":{"type":"Point","coordinates":[-99.124562306785691,19.398064619795605,0.0]}},
{"type":"Feature","properties":{"SISTEMA":"Metrobús","NOMBRE":"Coyuya","LINEA":"02","EST":"18","TIPO":"Intermedia","ALCALDIAS":"Iztacalco"},"geometry":{"type":"Point","coordinates":[-99.116782255054218,19.398283385365907,0.0]}},
{"type":"Feature","properties":{"SISTEMA":"Metrobús","NOMBRE":"Metro Coyuya","LINEA":"02","EST":"19","TIPO":"Transbordo","ALCALDIAS":"Iztacalco"},"geometry":{"type":"Point","coordinates":[-99.113465167274541,19.398329416102445,0.0]}},
{"type":"Feature","properties":{"SISTEMA":"Metrobús","NOMBRE":"Canela","LINEA":"02","EST":"20","TIPO":"Intermedia","ALCALDIAS":"Iztacalco"},"geometry":{"type":"Point","coordinates":[-99.109337759786015,19.397848657666984,0.0]}},
{"type":"Feature","properties":{"SISTEMA":"Metrobús","NOMBRE":"Tlacotal","LINEA":"02","EST":"21","TIPO":"Intermedia","ALCALDIAS":"Iztacalco"},"geometry":{"type":"Point","coordinates":[-99.103911060476079,19.397219080500399,0.0]}},
{"type":"Feature","properties":{"SISTEMA":"Metrobús","NOMBRE":"Goma","LINEA":"02","EST":"22","TIPO":"Intermedia","ALCALDIAS":"Iztacalco"},"geometry":{"type":"Point","coordinates":[-99.100007198618499,19.396890745591413,0.0]}},
{"type":"Feature","properties":{"SISTEMA":"Metrobús","NOMBRE":"Iztacalco","LINEA":"02","EST":"23","TIPO":"Intermedia","ALCALDIAS":"Iztacalco"},"geometry":{"type":"Point","coordinates":[-99.095957558617101,19.396547063893621,0.0]}},
{"type":"Feature","properties":{"SISTEMA":"Metrobús","NOMBRE":"UPIICSA","LINEA":"02","EST":"24","TIPO":"Intermedia","ALCALDIAS":"Iztacalco"},"geometry":{"type":"Point","coordinates":[-99.090392127217157,19.393935027363515,0.0]}},
{"type":"Feature","properties":{"SISTEMA":"Metrobús","NOMBRE":"El Rodeo","LINEA":"02","EST":"25","TIPO":"Intermedia","ALCALDIAS":"Iztacalco"},"geometry":{"type":"Point","coordinates":[-99.087080244311295,19.391661319394384,0.0]}},
{"type":"Feature","properties":{"SISTEMA":"Metrobús","NOMBRE":"Río Tecolutla","LINEA":"02","EST":"26","TIPO":"Intermedia","ALCALDIAS":"Iztapalapa"},"geometry":{"type":"Point","coordinates":[-99.083150015578411,19.389056448112665,0.0]}},
{"type":"Feature","properties":{"SISTEMA":"Metrobús","NOMBRE":"Río Mayo","LINEA":"02","EST":"27","TIPO":"Intermedia","ALCALDIAS":"Iztapalapa"},"geometry":{"type":"Point","coordinates":[-99.080023567587403,19.386961805905234,0.0]}},
{"type":"Feature","properties":{"SISTEMA":"Metrobús","NOMBRE":"Rojo Gómez","LINEA":"02","EST":"28","TIPO":"Intermedia","ALCALDIAS":"Iztapalapa"},"geometry":{"type":"Point","coordinates":[-99.076366513292257,19.384508944125191,0.0]}},
{"type":"Feature","properties":{"SISTEMA":"Metrobús","NOMBRE":"Río Frío","LINEA":"02","EST":"29","TIPO":"Intermedia","ALCALDIAS":"Iztacalco / Iztapalapa"},"geometry":{"type":"Point","coordinates":[-99.074280957553725,19.387628405483152,0.0]}},
{"type":"Feature","properties":{"SISTEMA":"Metrobús","NOMBRE":"Del Moral","LINEA":"02","EST":"30","TIPO":"Intermedia","ALCALDIAS":"Iztapalapa"},"geometry":{"type":"Point","coordinates":[-99.070920251271929,19.384197176822695,0.0]}},
{"type":"Feature","properties":{"SISTEMA":"Metrobús","NOMBRE":"Leyes de Reforma","LINEA":"02","EST":"31","TIPO":"Intermedia","ALCALDIAS":"Iztacalco / Iztapalapa"},"geometry":{"type":"Point","coordinates":[-99.065819619253588,19.383470158511908,0.0]}},
{"type":"Feature","properties":{"SISTEMA":"Metrobús","NOMBRE":"CCH Oriente","LINEA":"02","EST":"32","TIPO":"Intermedia","ALCALDIAS":"Iztacalco / Iztapalapa"},"geometry":{"type":"Point","coordinates":[-99.060791847740532,19.383326965131754,0.0]}},
{"type":"Feature","properties":{"SISTEMA":"Metrobús","NOMBRE":"Const. de Apatzingán","LINEA":"02","EST":"33","TIPO":"Intermedia","ALCALDIAS":"Iztacalco / Iztapalapa"},"geometry":{"type":"Point","coordinates":[-99.059848218789824,19.389031206363967,0.0]}},
{"type":"Feature","properties":{"SISTEMA":"Metrobús","NOMBRE":"Canal de San Juan","LINEA":"02","EST":"34","TIPO":"Intermedia","ALCALDIAS":"Iztapalapa"},"geometry":{"type":"Point","coordinates":[-99.056547520179763,19.396711223779064,0.0]}},
{"type":"Feature","properties":{"SISTEMA":"Metrobús","NOMBRE":"Gral. Antonio de León","LINEA":"02","EST":"35","TIPO":"Intermedia","ALCALDIAS":"Iztapalapa"},"geometry":{"type":"Point","coordinates":[-99.051733813636119,19.385381301595025,0.0]}},
{"type":"Feature","properties":{"SISTEMA":"Metrobús","NOMBRE":"Nicolás Bravo","LINEA":"02","EST":"36","TIPO":"Intermedia","ALCALDIAS":"Iztapalapa"},"geometry":{"type":"Point","coordinates":[-99.050925320128485,19.393495417171533,0.0]}},
{"type":"Feature","properties":{"SISTEMA":"Metrobús","NOMBRE":"Tepalcates","LINEA":"02","EST":"37","TIPO":"Terminal","ALCALDIAS":"Iztapalapa"},"geometry":{"type":"Point","coordinates":[-99.047612592446555,19.390767861575902,0.0]}},
{"type":"Feature","properties":{"SISTEMA":"Metrobús","NOMBRE":"Tenayuca","LINEA":"03","EST":"01","TIPO":"Terminal","ALCALDIAS":"Gustavo A. Madero"},"geometry":{"type":"Point","coordinates":[-99.170111357991217,19.5286169823938,0.0]}},
{"type":"Feature","properties":{"SISTEMA":"Metrobús","NOMBRE":"S. J. de la Escalera","LINEA":"03","EST":"02","TIPO":"Intermedia","ALCALDIAS":"Gustavo A. Madero"},"geometry":{"type":"Point","coordinates":[-99.165555348251033,19.522718769379701,0.0]}},
{"type":"Feature","properties":{"SISTEMA":"Metrobús","NOMBRE":"Progreso Nacional","LINEA":"03","EST":"03","TIPO":"Intermedia","ALCALDIAS":"Gustavo A. Madero"},"geometry":{"type":"Point","coordinates":[-99.163771972090032,19.519688433851808,0.0]}},
{"type":"Feature","properties":{"SISTEMA":"Metrobús","NOMBRE":"Tres Anegas","LINEA":"03","EST":"04","TIPO":"Intermedia","ALCALDIAS":"Gustavo A. Madero"},"geometry":{"type":"Point","coordinates":[-99.161932830066988,19.515505438266889,0.0]}},
{"type":"Feature","properties":{"SISTEMA":"Metrobús","NOMBRE":"Júpiter","LINEA":"03","EST":"05","TIPO":"Intermedia","ALCALDIAS":"Gustavo A. Madero / Estado de México - Tlalnepantla"},"geometry":{"type":"Point","coordinates":[-99.159235756779097,19.508614111481233,0.0]}},
{"type":"Feature","properties":{"SISTEMA":"Metrobús","NOMBRE":"La Patera","LINEA":"03","EST":"06","TIPO":"Intermedia","ALCALDIAS":"Gustavo A. Madero / Estado de México - Tlalnepantla"},"geometry":{"type":"Point","coordinates":[-99.157266668355547,19.503663641847012,0.0]}},
{"type":"Feature","properties":{"SISTEMA":"Metrobús","NOMBRE":"Poniente 146","LINEA":"03","EST":"07","TIPO":"Intermedia","ALCALDIAS":"Gustavo A. Madero / Azcapotzalco"},"geometry":{"type":"Point","coordinates":[-99.155884663954765,19.499986083480362,0.0]}},
{"type":"Feature","properties":{"SISTEMA":"Metrobús","NOMBRE":"Montevideo","LINEA":"03","EST":"08","TIPO":"Transbordo","ALCALDIAS":"Gustavo A. Madero / Azcapotzalco"},"geometry":{"type":"Point","coordinates":[-99.15445675394804,19.496105808364469,0.0]}},
{"type":"Feature","properties":{"SISTEMA":"Metrobús","NOMBRE":"Poniente 134","LINEA":"03","EST":"09","TIPO":"Intermedia","ALCALDIAS":"Gustavo A. Madero / Azcapotzalco"},"geometry":{"type":"Point","coordinates":[-99.153170613111314,19.492687505131098,0.0]}},
{"type":"Feature","properties":{"SISTEMA":"Metrobús","NOMBRE":"Poniente 128","LINEA":"03","EST":"10","TIPO":"Intermedia","ALCALDIAS":"Gustavo A. Madero / Azcapotzalco"},"geometry":{"type":"Point","coordinates":[-99.151955660581194,19.489545926642752,0.0]}},
{"type":"Feature","properties":{"SISTEMA":"Metrobús","NOMBRE":"M. de las Salinas","LINEA":"03","EST":"11","TIPO":"Intermedia","ALCALDIAS":"Gustavo A. Madero / Azcapotzalco"},"geometry":{"type":"Point","coordinates":[-99.14985948376416,19.483881525125724,0.0]}},
{"type":"Feature","properties":{"SISTEMA":"Metrobús","NOMBRE":"Coltongo","LINEA":"03","EST":"12","TIPO":"Intermedia","ALCALDIAS":"Gustavo A. Madero / Azcapotzalco"},"geometry":{"type":"Point","coordinates":[-99.148327417384252,19.479851429089226,0.0]}},
{"type":"Feature","properties":{"SISTEMA":"Metrobús","NOMBRE":"Cuitláhuac","LINEA":"03","EST":"13","TIPO":"Intermedia","ALCALDIAS":"Gustavo A. Madero / Azcapotzalco"},"geometry":{"type":"Point","coordinates":[-99.146160403285464,19.47415067407713,0.0]}},
{"type":"Feature","properties":{"SISTEMA":"Metrobús","NOMBRE":"Héroe de Nacozari","LINEA":"03","EST":"14","TIPO":"Intermedia","ALCALDIAS":"Gustavo A. Madero / Azcapotzalco"},"geometry":{"type":"Point","coordinates":[-99.145038530276409,19.471162298443112,0.0]}},
{"type":"Feature","properties":{"SISTEMA":"Metrobús","NOMBRE":"Hospital La Raza","LINEA":"03","EST":"15","TIPO":"Intermedia","ALCALDIAS":"Gustavo A. Madero / Azcapotzalco"},"geometry":{"type":"Point","coordinates":[-99.14384647140281,19.467990084991268,0.0]}},
{"type":"Feature","properties":{"SISTEMA":"Metrobús","NOMBRE":"La Raza","LINEA":"03","EST":"16","TIPO":"Terminal / Transbordo","ALCALDIAS":"Gustavo A. Madero"},"geometry":{"type":"Point","coordinates":[-99.14095197700037,19.467325707115016,0.0]}},
{"type":"Feature","properties":{"SISTEMA":"Metrobús","NOMBRE":"Circuito","LINEA":"03","EST":"17","TIPO":"Transbordo","ALCALDIAS":"Cuauhtémoc"},"geometry":{"type":"Point","coordinates":[-99.144062408002554,19.463292598767524,0.0]}},
{"type":"Feature","properties":{"SISTEMA":"Metrobús","NOMBRE":"Tolnahuác","LINEA":"03","EST":"18","TIPO":"Intermedia","ALCALDIAS":"Cuauhtémoc"},"geometry":{"type":"Point","coordinates":[-99.14406434468907,19.45988980177588,0.0]}},
{"type":"Feature","properties":{"SISTEMA":"Metrobús","NOMBRE":"Tlatelolco","LINEA":"03","EST":"19","TIPO":"Intermedia","ALCALDIAS":"Cuauhtémoc"},"geometry":{"type":"Point","coordinates":[-99.145045586517995,19.455559396959604,0.0]}},
{"type":"Feature","properties":{"SISTEMA":"Metrobús","NOMBRE":"R. Flores Magón","LINEA":"03","EST":"20","TIPO":"Intermedia","ALCALDIAS":"Cuauhtémoc"},"geometry":{"type":"Point","coordinates":[-99.145904313918109,19.451781828819929,0.0]}},
{"type":"Feature","properties":{"SISTEMA":"Metrobús","NOMBRE":"Guerrero","LINEA":"03","EST":"21","TIPO":"Intermedia","ALCALDIAS":"Cuauhtémoc"},"geometry":{"type":"Point","coordinates":[-99.147212035473231,19.446028781312265,0.0]}},
{"type":"Feature","properties":{"SISTEMA":"Metrobús","NOMBRE":"Buenavista III","LINEA":"03","EST":"22","TIPO":"Terminal","ALCALDIAS":"Cuauhtémoc"},"geometry":{"type":"Point","coordinates":[-99.152155065694544,19.44574895861706,0.0]}},
{"type":"Feature","properties":{"SISTEMA":"Metrobús","NOMBRE":"Mina","LINEA":"03","EST":"23","TIPO":"Intermedia","ALCALDIAS":"Cuauhtémoc"},"geometry":{"type":"Point","coordinates":[-99.14854680022269,19.440584238229647,0.0]}},
{"type":"Feature","properties":{"SISTEMA":"Metrobús","NOMBRE":"Hidalgo","LINEA":"03","EST":"24","TIPO":"Transbordo","ALCALDIAS":"Cuauhtémoc"},"geometry":{"type":"Point","coordinates":[-99.147213542998259,19.43600578401691,0.0]}},
{"type":"Feature","properties":{"SISTEMA":"Metrobús","NOMBRE":"Juárez","LINEA":"03","EST":"25","TIPO":"Transbordo","ALCALDIAS":"Cuauhtémoc"},"geometry":{"type":"Point","coordinates":[-99.148032262736734,19.431290369144751,0.0]}},
{"type":"Feature","properties":{"SISTEMA":"Metrobús","NOMBRE":"Balderas","LINEA":"03","EST":"26","TIPO":"Terminal","ALCALDIAS":"Cuauhtémoc"},"geometry":{"type":"Point","coordinates":[-99.1487392095774,19.428065823281596,0.0]}},
{"type":"Feature","properties":{"SISTEMA":"Metrobús","NOMBRE":"Cuauhtémoc","LINEA":"03","EST":"27","TIPO":"Intermedia","ALCALDIAS":"Cuauhtémoc"},"geometry":{"type":"Point","coordinates":[-99.15370156831095,19.42495914337271,0.0]}},
{"type":"Feature","properties":{"SISTEMA":"Metrobús","NOMBRE":"Jardín Pushkin","LINEA":"03","EST":"28","TIPO":"Intermedia","ALCALDIAS":"Cuauhtémoc"},"geometry":{"type":"Point","coordinates":[-99.154083644658485,19.420398689564426,0.0]}},
{"type":"Feature","properties":{"SISTEMA":"Metrobús","NOMBRE":"Hospital General","LINEA":"03","EST":"29","TIPO":"Intermedia","ALCALDIAS":"Cuauhtémoc"},"geometry":{"type":"Point","coordinates":[-99.154559021384955,19.41443601939125,0.0]}},
{"type":"Feature","properties":{"SISTEMA":"Metrobús","NOMBRE":"Doctor Márquez","LINEA":"03","EST":"30","TIPO":"Intermedia","ALCALDIAS":"Cuauhtémoc"},"geometry":{"type":"Point","coordinates":[-99.154844993772741,19.411111393261983,0.0]}},
{"type":"Feature","properties":{"SISTEMA":"Metrobús","NOMBRE":"Centro Médico","LINEA":"03","EST":"31","TIPO":"Intermedia","ALCALDIAS":"Cuauhtémoc"},"geometry":{"type":"Point","coordinates":[-99.155126678289079,19.407273230594214,0.0]}},
{"type":"Feature","properties":{"SISTEMA":"Metrobús","NOMBRE":"Obrero Mundial","LINEA":"03","EST":"32","TIPO":"Intermedia","ALCALDIAS":"Benito Juárez"},"geometry":{"type":"Point","coordinates":[-99.155602309252714,19.401060179147198,0.0]}},
{"type":"Feature","properties":{"SISTEMA":"Metrobús","NOMBRE":"Etiopía","LINEA":"03","EST":"33","TIPO":"Transbordo","ALCALDIAS":"Benito Juárez"},"geometry":{"type":"Point","coordinates":[-99.155902455050622,19.396996886126232,0.0]}},
{"type":"Feature","properties":{"SISTEMA":"Metrobús","NOMBRE":"Luz Saviñón","LINEA":"03","EST":"34","TIPO":"Intermedia","ALCALDIAS":"Benito Juárez"},"geometry":{"type":"Point","coordinates":[-99.156346046710397,19.391592993258197,0.0]}},
{"type":"Feature","properties":{"SISTEMA":"Metrobús","NOMBRE":"Eugenia","LINEA":"03","EST":"35","TIPO":"Intermedia","ALCALDIAS":"Benito Juárez"},"geometry":{"type":"Point","coordinates":[-99.157227117046574,19.385953800913427,0.0]}},
{"type":"Feature","properties":{"SISTEMA":"Metrobús","NOMBRE":"División del Norte","LINEA":"03","EST":"36","TIPO":"Intermedia","ALCALDIAS":"Benito Juárez"},"geometry":{"type":"Point","coordinates":[-99.158743697845352,19.380505259578399,0.0]}},
{"type":"Feature","properties":{"SISTEMA":"Metrobús","NOMBRE":"Miguel Laurent","LINEA":"03","EST":"37","TIPO":"Intermedia","ALCALDIAS":"Benito Juárez"},"geometry":{"type":"Point","coordinates":[-99.160229820039746,19.374836827241918,0.0]}},
{"type":"Feature","properties":{"SISTEMA":"Metrobús","NOMBRE":"Pueblo Sta. Cruz Atoyac","LINEA":"03","EST":"38","TIPO":"Terminal","ALCALDIAS":"Benito Juárez"},"geometry":{"type":"Point","coordinates":[-99.161008812167381,19.371569277530458,0.0]}},
{"type":"Feature","properties":{"SISTEMA":"Metrobús","NOMBRE":"Río de Los Remedios","LINEA":"05","EST":"01","TIPO":"Terminal","ALCALDIAS":"Gustavo A. Madero / Estado de México - Ecatepec"},"geometry":{"type":"Point","coordinates":[-99.085934500390323,19.507111490097344,0.0]}},
{"type":"Feature","properties":{"SISTEMA":"Metrobús","NOMBRE":"314 M. New's Divine","LINEA":"05","EST":"02","TIPO":"Intermedia","ALCALDIAS":"Gustavo A. Madero"},"geometry":{"type":"Point","coordinates":[-99.088728281605825,19.500606215084737,0.0]}},
{"type":"Feature","properties":{"SISTEMA":"Metrobús","NOMBRE":"5 de Mayo","LINEA":"05","EST":"03","TIPO":"Intermedia","ALCALDIAS":"Gustavo A. Madero"},"geometry":{"type":"Point","coordinates":[-99.090177614438218,19.497090158579475,0.0]}},
{"type":"Feature","properties":{"SISTEMA":"Metrobús","NOMBRE":"Vasco de Quiroga","LINEA":"05","EST":"04","TIPO":"Intermedia","ALCALDIAS":"Gustavo A. Madero"},"geometry":{"type":"Point","coordinates":[-99.091782734089335,19.493296020128245,0.0]}},
{"type":"Feature","properties":{"SISTEMA":"Metrobús","NOMBRE":"El Coyol","LINEA":"05","EST":"05","TIPO":"Intermedia","ALCALDIAS":"Gustavo A. Madero"},"geometry":{"type":"Point","coordinates":[-99.094175998989556,19.48753788436704,0.0]}},
{"type":"Feature","properties":{"SISTEMA":"Metrobús","NOMBRE":"Preparatoria 3","LINEA":"05","EST":"06","TIPO":"Intermedia","ALCALDIAS":"Gustavo A. Madero"},"geometry":{"type":"Point","coordinates":[-99.096009302843143,19.483362132501473,0.0]}},
{"type":"Feature","properties":{"SISTEMA":"Metrobús","NOMBRE":"San Juan de Aragón","LINEA":"05","EST":"07","TIPO":"Transbordo","ALCALDIAS":"Gustavo A. Madero"},"geometry":{"type":"Point","coordinates":[-99.097506459610912,19.479868545989383,0.0]}},
{"type":"Feature","properties":{"SISTEMA":"Metrobús","NOMBRE":"Río de Guadalupe","LINEA":"05","EST":"08","TIPO":"Intermedia","ALCALDIAS":"Gustavo A. Madero"},"geometry":{"type":"Point","coordinates":[-99.099116522301742,19.476027585363525,0.0]}},
{"type":"Feature","properties":{"SISTEMA":"Metrobús","NOMBRE":"Talismán","LINEA":"05","EST":"09","TIPO":"Intermedia","ALCALDIAS":"Gustavo A. Madero"},"geometry":{"type":"Point","coordinates":[-99.101242943946957,19.471017236268828,0.0]}},
{"type":"Feature","properties":{"SISTEMA":"Metrobús","NOMBRE":"Victoria","LINEA":"05","EST":"10","TIPO":"Intermedia","ALCALDIAS":"Gustavo A. Madero"},"geometry":{"type":"Point","coordinates":[-99.10279733696791,19.467341524547933,0.0]}},
{"type":"Feature","properties":{"SISTEMA":"Metrobús","NOMBRE":"Oriente 101","LINEA":"05","EST":"11","TIPO":"Intermedia","ALCALDIAS":"Gustavo A. Madero"},"geometry":{"type":"Point","coordinates":[-99.105486052633324,19.460974814399073,0.0]}},
{"type":"Feature","properties":{"SISTEMA":"Metrobús","NOMBRE":"Río Santa Coleta","LINEA":"05","EST":"12","TIPO":"Intermedia","ALCALDIAS":"Gustavo A. Madero"},"geometry":{"type":"Point","coordinates":[-99.107492916221517,19.456058581060113,0.0]}},
{"type":"Feature","properties":{"SISTEMA":"Metrobús","NOMBRE":"Río Consulado","LINEA":"05","EST":"13","TIPO":"Intermedia","ALCALDIAS":"Gustavo A. Madero"},"geometry":{"type":"Point","coordinates":[-99.10844651603702,19.453664846824875,0.0]}},
{"type":"Feature","properties":{"SISTEMA":"Metrobús","NOMBRE":"Canal del Norte","LINEA":"05","EST":"14","TIPO":"Intermedia","ALCALDIAS":"Venustiano Carranza"},"geometry":{"type":"Point","coordinates":[-99.110357151640741,19.449686388775383,0.0]}},
{"type":"Feature","properties":{"SISTEMA":"Metrobús","NOMBRE":"Deportivo E. Molina","LINEA":"05","EST":"15","TIPO":"Intermedia","ALCALDIAS":"Venustiano Carranza"},"geometry":{"type":"Point","coordinates":[-99.112175453306506,19.444699160776924,0.0]}},
{"type":"Feature","properties":{"SISTEMA":"Metrobús","NOMBRE":"Mercado Morelos","LINEA":"05","EST":"16","TIPO":"Intermedia","ALCALDIAS":"Venustiano Carranza"},"geometry":{"type":"Point","coordinates":[-99.113439616353176,19.441324278658463,0.0]}},
{"type":"Feature","properties":{"SISTEMA":"Metrobús","NOMBRE":"San Lázaro","LINEA":"05","EST":"18","TIPO":"Terminal / Transbordo","ALCALDIAS":"Venustiano Carranza"},"geometry":{"type":"Point","coordinates":[-99.115276080853448,19.43082245537709,0.0]}},
{"type":"Feature","properties":{"SISTEMA":"Metrobús","NOMBRE":"Moctezuma","LINEA":"05","EST":"19","TIPO":"Transbordo","ALCALDIAS":"Venustiano Carranza"},"geometry":{"type":"Point","coordinates":[-99.111474085632949,19.42558579366586,0.0]}},
{"type":"Feature","properties":{"SISTEMA":"Metrobús","NOMBRE":"Venustiano Carranza","LINEA":"05","EST":"20","TIPO":"Intermedia","ALCALDIAS":"Venustiano Carranza"},"geometry":{"type":"Point","coordinates":[-99.112218719814848,19.418374104890884,0.0]}},
{"type":"Feature","properties":{"SISTEMA":"Metrobús","NOMBRE":"Av. del Taller","LINEA":"05","EST":"21","TIPO":"Intermedia","ALCALDIAS":"Venustiano Carranza"},"geometry":{"type":"Point","coordinates":[-99.112782349479204,19.412935490752051,0.0]}},
{"type":"Feature","properties":{"SISTEMA":"Metrobús","NOMBRE":"Mixiuhca","LINEA":"05","EST":"22","TIPO":"Intermedia","ALCALDIAS":"Venustiano Carranza"},"geometry":{"type":"Point","coordinates":[-99.113327089140256,19.407866014490576,0.0]}},
{"type":"Feature","properties":{"SISTEMA":"Metrobús","NOMBRE":"Hospital Gral. Troncoso","LINEA":"05","EST":"23","TIPO":"Intermedia","ALCALDIAS":"Venustiano Carranza / Iztacalco"},"geometry":{"type":"Point","coordinates":[-99.113569634566758,19.405456196626901,0.0]}},
{"type":"Feature","properties":{"SISTEMA":"Metrobús","NOMBRE":"Metro Coyuya","LINEA":"05","EST":"24","TIPO":"Transbordo","ALCALDIAS":"Iztacalco"},"geometry":{"type":"Point","coordinates":[-99.113533697390324,19.399390323696512,0.0]}},
{"type":"Feature","properties":{"SISTEMA":"Metrobús","NOMBRE":"Recreo","LINEA":"05","EST":"25","TIPO":"Intermedia","ALCALDIAS":"Iztacalco"},"geometry":{"type":"Point","coordinates":[-99.113610318842774,19.393851185935912,0.0]}},
{"type":"Feature","properties":{"SISTEMA":"Metrobús","NOMBRE":"Oriente 116","LINEA":"05","EST":"26","TIPO":"Intermedia","ALCALDIAS":"Iztacalco"},"geometry":{"type":"Point","coordinates":[-99.112657928863129,19.390264504538923,0.0]}},
{"type":"Feature","properties":{"SISTEMA":"Metrobús","NOMBRE":"Colegio de Bachilleres 3","LINEA":"05","EST":"27","TIPO":"Intermedia","ALCALDIAS":"Iztacalco"},"geometry":{"type":"Point","coordinates":[-99.111661914973681,19.386323920395778,0.0]}},
{"type":"Feature","properties":{"SISTEMA":"Metrobús","NOMBRE":"Canal Apatlaco","LINEA":"05","EST":"28","TIPO":"Intermedia","ALCALDIAS":"Iztacalco"},"geometry":{"type":"Point","coordinates":[-99.110888767308438,19.382886983569982,0.0]}},
{"type":"Feature","properties":{"SISTEMA":"Metrobús","NOMBRE":"Apatlaco","LINEA":"05","EST":"29","TIPO":"Intermedia","ALCALDIAS":"Iztapalapa"},"geometry":{"type":"Point","coordinates":[-99.109072928288555,19.378057886535348,0.0]}},
{"type":"Feature","properties":{"SISTEMA":"Metrobús","NOMBRE":"Aculco","LINEA":"05","EST":"30","TIPO":"Intermedia","ALCALDIAS":"Iztapalapa"},"geometry":{"type":"Point","coordinates":[-99.107975095456865,19.374875117944935,0.0]}},
{"type":"Feature","properties":{"SISTEMA":"Metrobús","NOMBRE":"Churubusco Ote.","LINEA":"05","EST":"31","TIPO":"Intermedia","ALCALDIAS":"Iztapalapa"},"geometry":{"type":"Point","coordinates":[-99.107860638376152,19.371594645529289,0.0]}},
{"type":"Feature","properties":{"SISTEMA":"Metrobús","NOMBRE":"Escuadrón 201","LINEA":"05","EST":"32","TIPO":"Intermedia","ALCALDIAS":"Iztapalapa"},"geometry":{"type":"Point","coordinates":[-99.109192163382616,19.366043083300369,0.0]}},
{"type":"Feature","properties":{"SISTEMA":"Metrobús","NOMBRE":"Atanasio G. Sarabia","LINEA":"05","EST":"33","TIPO":"Intermedia","ALCALDIAS":"Iztapalapa"},"geometry":{"type":"Point","coordinates":[-99.110283784794831,19.361257339629237,0.0]}},
{"type":"Feature","properties":{"SISTEMA":"Metrobús","NOMBRE":"Ermita-Iztapalapa","LINEA":"05","EST":"34","TIPO":"Intermedia","ALCALDIAS":"Iztapalapa"},"geometry":{"type":"Point","coordinates":[-99.111335813837798,19.356628297758341,0.0]}},
{"type":"Feature","properties":{"SISTEMA":"Metrobús","NOMBRE":"Ganaderos","LINEA":"05","EST":"35","TIPO":"Intermedia","ALCALDIAS":"Iztapalapa"},"geometry":{"type":"Point","coordinates":[-99.110917751209769,19.351575151311181,0.0]}},
{"type":"Feature","properties":{"SISTEMA":"Metrobús","NOMBRE":"Pueblo de los Reyes","LINEA":"05","EST":"36","TIPO":"Intermedia","ALCALDIAS":"Iztapalapa"},"geometry":{"type":"Point","coordinates":[-99.111341151075848,19.347978179079181,0.0]}},
{"type":"Feature","properties":{"SISTEMA":"Metrobús","NOMBRE":"Barrio San Antonio","LINEA":"05","EST":"37","TIPO":"Intermedia","ALCALDIAS":"Iztapalapa"},"geometry":{"type":"Point","coordinates":[-99.112436393601968,19.343126250187428,0.0]}},
{"type":"Feature","properties":{"SISTEMA":"Metrobús","NOMBRE":"Calz. Taxqueña","LINEA":"05","EST":"38","TIPO":"Intermedia","ALCALDIAS":"Iztapalapa"},"geometry":{"type":"Point","coordinates":[-99.112996503508512,19.338755485617135,0.0]}},
{"type":"Feature","properties":{"SISTEMA":"Metrobús","NOMBRE":"Cafetales","LINEA":"05","EST":"39","TIPO":"Intermedia","ALCALDIAS":"Coyoacán"},"geometry":{"type":"Point","coordinates":[-99.113149356821395,19.333724451928003,0.0]}},
{"type":"Feature","properties":{"SISTEMA":"Metrobús","NOMBRE":"ESIME Culhuacán","LINEA":"05","EST":"40","TIPO":"Intermedia","ALCALDIAS":"Coyoacán"},"geometry":{"type":"Point","coordinates":[-99.113536757869184,19.329211199941046,0.0]}},
{"type":"Feature","properties":{"SISTEMA":"Metrobús","NOMBRE":"Manuela Sáenz","LINEA":"05","EST":"41","TIPO":"Intermedia","ALCALDIAS":"Coyoacán"},"geometry":{"type":"Point","coordinates":[-99.113966467494691,19.324206883029614,0.0]}},
{"type":"Feature","properties":{"SISTEMA":"Metrobús","NOMBRE":"La Virgen","LINEA":"05","EST":"42","TIPO":"Intermedia","ALCALDIAS":"Coyoacán"},"geometry":{"type":"Point","coordinates":[-99.113623132021374,19.32067531608638,0.0]}},
{"type":"Feature","properties":{"SISTEMA":"Metrobús","NOMBRE":"Tepetlapa","LINEA":"05","EST":"43","TIPO":"Intermedia","ALCALDIAS":"Coyoacán"},"geometry":{"type":"Point","coordinates":[-99.111626945988249,19.316341991514726,0.0]}},
{"type":"Feature","properties":{"SISTEMA":"Metrobús","NOMBRE":"Las Bombas","LINEA":"05","EST":"44","TIPO":"Intermedia","ALCALDIAS":"Coyoacán"},"geometry":{"type":"Point","coordinates":[-99.110670160807715,19.311838422682662,0.0]}},
{"type":"Feature","properties":{"SISTEMA":"Metrobús","NOMBRE":"Vista Hermosa","LINEA":"05","EST":"45","TIPO":"Intermedia","ALCALDIAS":"Coyoacán"},"geometry":{"type":"Point","coordinates":[-99.111791349450755,19.306812450932117,0.0]}},
{"type":"Feature","properties":{"SISTEMA":"Metrobús","NOMBRE":"Calz. del Hueso","LINEA":"05","EST":"46","TIPO":"Intermedia","ALCALDIAS":"Coyoacán / Tlalpan"},"geometry":{"type":"Point","coordinates":[-99.113345570282036,19.301571940686618,0.0]}},
{"type":"Feature","properties":{"SISTEMA":"Metrobús","NOMBRE":"Cañaverales","LINEA":"05","EST":"47","TIPO":"Intermedia","ALCALDIAS":"Tlalpan"},"geometry":{"type":"Point","coordinates":[-99.114472703287703,19.29554512707654,0.0]}},
{"type":"Feature","properties":{"SISTEMA":"Metrobús","NOMBRE":"Muyuguarda","LINEA":"05","EST":"48","TIPO":"Intermedia","ALCALDIAS":"Xochimilco"},"geometry":{"type":"Point","coordinates":[-99.115541100487633,19.285059408791955,0.0]}},
{"type":"Feature","properties":{"SISTEMA":"Metrobús","NOMBRE":"Circuito Cuemanco","LINEA":"05","EST":"49","TIPO":"Intermedia","ALCALDIAS":"Xochimilco"},"geometry":{"type":"Point","coordinates":[-99.116693059165272,19.281406895692214,0.0]}},
{"type":"Feature","properties":{"SISTEMA":"Metrobús","NOMBRE":"DIF Xochimilco","LINEA":"05","EST":"50","TIPO":"Intermedia","ALCALDIAS":"Xochimilco"},"geometry":{"type":"Point","coordinates":[-99.11766159163723,19.278191035665575,0.0]}},
{"type":"Feature","properties":{"SISTEMA":"Metrobús","NOMBRE":"Preparatoria 1","LINEA":"05","EST":"51","TIPO":"Terminal","ALCALDIAS":"Xochimilco"},"geometry":{"type":"Point","coordinates":[-99.1207959232013,19.273373997332591,0.0]}},
{"type":"Feature","properties":{"SISTEMA":"Metrobús","NOMBRE":"El Rosario","LINEA":"06","EST":"01","TIPO":"Terminal","ALCALDIAS":"Azcapotzalco"},"geometry":{"type":"Point","coordinates":[-99.199545671961232,19.507166312844809,0.0]}},
{"type":"Feature","properties":{"SISTEMA":"Metrobús","NOMBRE":"C. de Bachilleres 1","LINEA":"06","EST":"02","TIPO":"Intermedia","ALCALDIAS":"Azcapotzalco"},"geometry":{"type":"Point","coordinates":[-99.197314579761311,19.511637115237651,0.0]}},
{"type":"Feature","properties":{"SISTEMA":"Metrobús","NOMBRE":"De Las Culturas","LINEA":"06","EST":"03","TIPO":"Intermedia","ALCALDIAS":"Azcapotzalco / Estado de México - Tlalnepantla"},"geometry":{"type":"Point","coordinates":[-99.192605340674845,19.510944816535513,0.0]}},
{"type":"Feature","properties":{"SISTEMA":"Metrobús","NOMBRE":"F.F.C.C. Nacionales","LINEA":"06","EST":"04","TIPO":"Intermedia","ALCALDIAS":"Azcapotzalco"},"geometry":{"type":"Point","coordinates":[-99.18859764733908,19.504873478224042,0.0]}},
{"type":"Feature","properties":{"SISTEMA":"Metrobús","NOMBRE":"UAM Azcapotzalco","LINEA":"06","EST":"05","TIPO":"Intermedia","ALCALDIAS":"Azcapotzalco"},"geometry":{"type":"Point","coordinates":[-99.183987235794021,19.504008672336422,0.0]}},
{"type":"Feature","properties":{"SISTEMA":"Metrobús","NOMBRE":"Tecnoparque","LINEA":"06","EST":"06","TIPO":"Intermedia","ALCALDIAS":"Azcapotzalco"},"geometry":{"type":"Point","coordinates":[-99.178876311992468,19.502473142993285,0.0]}},
{"type":"Feature","properties":{"SISTEMA":"Metrobús","NOMBRE":"Norte 59","LINEA":"06","EST":"07","TIPO":"Intermedia","ALCALDIAS":"Azcapotzalco"},"geometry":{"type":"Point","coordinates":[-99.165553916551531,19.497621822697571,0.0]}},
{"type":"Feature","properties":{"SISTEMA":"Metrobús","NOMBRE":"Norte 45","LINEA":"06","EST":"08","TIPO":"Intermedia","ALCALDIAS":"Azcapotzalco"},"geometry":{"type":"Point","coordinates":[-99.159748069584509,19.496346822369478,0.0]}},
{"type":"Feature","properties":{"SISTEMA":"Metrobús","NOMBRE":"Montevideo","LINEA":"06","EST":"09","TIPO":"Transbordo","ALCALDIAS":"Gustavo A. Madero / Azcapotzalco"},"geometry":{"type":"Point","coordinates":[-99.153059477648171,19.49487546899304,0.0]}},
{"type":"Feature","properties":{"SISTEMA":"Metrobús","NOMBRE":"Lindavista-Vallejo","LINEA":"06","EST":"10","TIPO":"Intermedia","ALCALDIAS":"Gustavo A. Madero"},"geometry":{"type":"Point","coordinates":[-99.148038698265424,19.493775766773108,0.0]}},
{"type":"Feature","properties":{"SISTEMA":"Metrobús","NOMBRE":"Instituto del Petróleo","LINEA":"06","EST":"11","TIPO":"Intermedia","ALCALDIAS":"Gustavo A. Madero"},"geometry":{"type":"Point","coordinates":[-99.14517090150207,19.493146120101891,0.0]}},
{"type":"Feature","properties":{"SISTEMA":"Metrobús","NOMBRE":"San Bartolo","LINEA":"06","EST":"12","TIPO":"Intermedia","ALCALDIAS":"Gustavo A. Madero"},"geometry":{"type":"Point","coordinates":[-99.139110895541151,19.491964128780058,0.0]}},
{"type":"Feature","properties":{"SISTEMA":"Metrobús","NOMBRE":"I.P.N.","LINEA":"06","EST":"13","TIPO":"Terminal","ALCALDIAS":"Gustavo A. Madero"},"geometry":{"type":"Point","coordinates":[-99.132654231067832,19.490431839892977,0.0]}},
{"type":"Feature","properties":{"SISTEMA":"Metrobús","NOMBRE":"Riobamba","LINEA":"06","EST":"14","TIPO":"Intermedia","ALCALDIAS":"Gustavo A. Madero"},"geometry":{"type":"Point","coordinates":[-99.127899181009823,19.488650997000587,0.0]}},
{"type":"Feature","properties":{"SISTEMA":"Metrobús","NOMBRE":"Dep. 18 de Marzo","LINEA":"06","EST":"15","TIPO":"Transbordo","ALCALDIAS":"Gustavo A. Madero"},"geometry":{"type":"Point","coordinates":[-99.122398091522442,19.486601653331064,0.0]}},
{"type":"Feature","properties":{"SISTEMA":"Metrobús","NOMBRE":"La Villa","LINEA":"06","EST":"16","TIPO":"Intermedia","ALCALDIAS":"Gustavo A. Madero"},"geometry":{"type":"Point","coordinates":[-99.119604425041459,19.485427633059548,0.0]}},
{"type":"Feature","properties":{"SISTEMA":"Metrobús","NOMBRE":"De Los Misterios","LINEA":"06","EST":"17","TIPO":"Transbordo","ALCALDIAS":"Gustavo A. Madero"},"geometry":{"type":"Point","coordinates":[-99.117945288919074,19.487207158994181,0.0]}},
{"type":"Feature","properties":{"SISTEMA":"Metrobús","NOMBRE":"Hospital Infantil La Villa","LINEA":"06","EST":"18","TIPO":"Transbordo","ALCALDIAS":"Gustavo A. Madero"},"geometry":{"type":"Point","coordinates":[-99.114703810679799,19.488035584575954,0.0]}},
{"type":"Feature","properties":{"SISTEMA":"Metrobús","NOMBRE":"Gustavo A. Madero","LINEA":"06","EST":"19","TIPO":"Transbordo","ALCALDIAS":"Gustavo A. Madero"},"geometry":{"type":"Point","coordinates":[-99.112344308284747,19.483890589899836,0.0]}},
{"type":"Feature","properties":{"SISTEMA":"Metrobús","NOMBRE":"Martín Carrera","LINEA":"06","EST":"20","TIPO":"Intermedia","ALCALDIAS":"Gustavo A. Madero"},"geometry":{"type":"Point","coordinates":[-99.105335113890007,19.482038442928186,0.0]}},
{"type":"Feature","properties":{"SISTEMA":"Metrobús","NOMBRE":"Hospital General La Villa","LINEA":"06","EST":"21","TIPO":"Intermedia","ALCALDIAS":"Gustavo A. Madero"},"geometry":{"type":"Point","coordinates":[-99.10118832718274,19.48036802648085,0.0]}},
{"type":"Feature","properties":{"SISTEMA":"Metrobús","NOMBRE":"San Juan de Aragón","LINEA":"06","EST":"22","TIPO":"Transbordo","ALCALDIAS":"Gustavo A. Madero"},"geometry":{"type":"Point","coordinates":[-99.09717411378594,19.478759435914025,0.0]}},
{"type":"Feature","properties":{"SISTEMA":"Metrobús","NOMBRE":"Gran Canal","LINEA":"06","EST":"23","TIPO":"Intermedia","ALCALDIAS":"Gustavo A. Madero"},"geometry":{"type":"Point","coordinates":[-99.092933196304955,19.477094756615855,0.0]}},
{"type":"Feature","properties":{"SISTEMA":"Metrobús","NOMBRE":"Casas Alemán","LINEA":"06","EST":"24","TIPO":"Intermedia","ALCALDIAS":"Gustavo A. Madero"},"geometry":{"type":"Point","coordinates":[-99.088366883499049,19.474321511242103,0.0]}},
{"type":"Feature","properties":{"SISTEMA":"Metrobús","NOMBRE":"Pueblo San Juan de Aragón","LINEA":"06","EST":"25","TIPO":"Intermedia","ALCALDIAS":"Gustavo A. Madero"},"geometry":{"type":"Point","coordinates":[-99.086361145066746,19.471004986524242,0.0]}},
{"type":"Feature","properties":{"SISTEMA":"Metrobús","NOMBRE":"Loreto Fabela","LINEA":"06","EST":"26","TIPO":"Intermedia","ALCALDIAS":"Gustavo A. Madero"},"geometry":{"type":"Point","coordinates":[-99.080981874119644,19.467397728489182,0.0]}},
{"type":"Feature","properties":{"SISTEMA":"Metrobús","NOMBRE":"482","LINEA":"06","EST":"27","TIPO":"Intermedia","ALCALDIAS":"Gustavo A. Madero"},"geometry":{"type":"Point","coordinates":[-99.075525790671421,19.46686406486538,0.0]}},
{"type":"Feature","properties":{"SISTEMA":"Metrobús","NOMBRE":"414","LINEA":"06","EST":"28","TIPO":"Intermedia","ALCALDIAS":"Gustavo A. Madero"},"geometry":{"type":"Point","coordinates":[-99.071599971555926,19.468434926945768,0.0]}},
{"type":"Feature","properties":{"SISTEMA":"Metrobús","NOMBRE":"416 Poniente","LINEA":"06","EST":"29","TIPO":"Intermedia","ALCALDIAS":"Gustavo A. Madero"},"geometry":{"type":"Point","coordinates":[-99.079379666346298,19.472519134207445,0.0]}},
{"type":"Feature","properties":{"SISTEMA":"Metrobús","NOMBRE":"416 Oriente","LINEA":"06","EST":"30","TIPO":"Intermedia","ALCALDIAS":"Gustavo A. Madero"},"geometry":{"type":"Point","coordinates":[-99.070911573878504,19.471138968494511,0.0]}},
{"type":"Feature","properties":{"SISTEMA":"Metrobús","NOMBRE":"Deportivo Los Galeana","LINEA":"06","EST":"31","TIPO":"Intermedia","ALCALDIAS":"Gustavo A. Madero"},"geometry":{"type":"Point","coordinates":[-99.078046864984515,19.478460984895218,0.0]}},
{"type":"Feature","properties":{"SISTEMA":"Metrobús","NOMBRE":"Ampliación Providencia","LINEA":"06","EST":"32","TIPO":"Intermedia","ALCALDIAS":"Gustavo A. Madero"},"geometry":{"type":"Point","coordinates":[-99.075298416404081,19.479846981666174,0.0]}},
{"type":"Feature","properties":{"SISTEMA":"Metrobús","NOMBRE":"Volcán de Fuego","LINEA":"06","EST":"33","TIPO":"Intermedia","ALCALDIAS":"Gustavo A. Madero"},"geometry":{"type":"Point","coordinates":[-99.072521841668731,19.476969022533442,0.0]}},
{"type":"Feature","properties":{"SISTEMA":"Metrobús","NOMBRE":"La Pradera","LINEA":"06","EST":"34","TIPO":"Intermedia","ALCALDIAS":"Gustavo A. Madero"},"geometry":{"type":"Point","coordinates":[-99.068673063311934,19.473133545970587,0.0]}},
{"type":"Feature","properties":{"SISTEMA":"Metrobús","NOMBRE":"C. de Bachilleres 9","LINEA":"06","EST":"35","TIPO":"Intermedia","ALCALDIAS":"Gustavo A. Madero"},"geometry":{"type":"Point","coordinates":[-99.065001566347803,19.46979543177796,0.0]}},
{"type":"Feature","properties":{"SISTEMA":"Metrobús","NOMBRE":"Francisco Morazán","LINEA":"06","EST":"36","TIPO":"Intermedia","ALCALDIAS":"Gustavo A. Madero"},"geometry":{"type":"Point","coordinates":[-99.061834454208608,19.467048277143402,0.0]}},
{"type":"Feature","properties":{"SISTEMA":"Metrobús","NOMBRE":"Villa de Aragón","LINEA":"06","EST":"37","TIPO":"Terminal","ALCALDIAS":"Gustavo A. Madero"},"geometry":{"type":"Point","coordinates":[-99.059517539092823,19.464921728470635,0.0]}},
{"type":"Feature","properties":{"SISTEMA":"Metrobús","NOMBRE":"Indios Verdes","LINEA":"07","EST":"01","TIPO":"Terminal / Transbordo","ALCALDIAS":"Gustavo A. Madero"},"geometry":{"type":"Point","coordinates":[-99.121012659085721,19.493039918074693,0.0]}},
{"type":"Feature","properties":{"SISTEMA":"Metrobús","NOMBRE":"Hospital Infantil La Villa","LINEA":"07","EST":"02","TIPO":"Terminal / Transbordo","ALCALDIAS":"Gustavo A. Madero"},"geometry":{"type":"Point","coordinates":[-99.113784464931499,19.487278454827209,0.0]}},
{"type":"Feature","properties":{"SISTEMA":"Metrobús","NOMBRE":"De Los Misterios","LINEA":"07","EST":"03","TIPO":"Transbordo","ALCALDIAS":"Gustavo A. Madero"},"geometry":{"type":"Point","coordinates":[-99.117922834677515,19.486991989075548,0.0]}},
{"type":"Feature","properties":{"SISTEMA":"Metrobús","NOMBRE":"Gustavo A. Madero","LINEA":"07","EST":"04","TIPO":"Transbordo","ALCALDIAS":"Gustavo A. Madero"},"geometry":{"type":"Point","coordinates":[-99.113928045111351,19.483547744379912,0.0]}},
{"type":"Feature","properties":{"SISTEMA":"Metrobús","NOMBRE":"Garrido","LINEA":"07","EST":"05","TIPO":"Intermedia","ALCALDIAS":"Gustavo A. Madero"},"geometry":{"type":"Point","coordinates":[-99.119349703522019,19.483248207318105,0.0]}},
{"type":"Feature","properties":{"SISTEMA":"Metrobús","NOMBRE":"Av. Talismán","LINEA":"07","EST":"06","TIPO":"Intermedia","ALCALDIAS":"Gustavo A. Madero"},"geometry":{"type":"Point","coordinates":[-99.121078493586538,19.478675139039872,0.0]}},
{"type":"Feature","properties":{"SISTEMA":"Metrobús","NOMBRE":"Necaxa","LINEA":"07","EST":"07","TIPO":"Intermedia","ALCALDIAS":"Gustavo A. Madero"},"geometry":{"type":"Point","coordinates":[-99.122318169071832,19.475375761996101,0.0]}},
{"type":"Feature","properties":{"SISTEMA":"Metrobús","NOMBRE":"Excélsior","LINEA":"07","EST":"08","TIPO":"Intermedia","ALCALDIAS":"Gustavo A. Madero"},"geometry":{"type":"Point","coordinates":[-99.123886007668091,19.47119438241247,0.0]}},
{"type":"Feature","properties":{"SISTEMA":"Metrobús","NOMBRE":"Robles Domínguez","LINEA":"07","EST":"09","TIPO":"Intermedia","ALCALDIAS":"Gustavo A. Madero"},"geometry":{"type":"Point","coordinates":[-99.125177664149206,19.467758225987158,0.0]}},
{"type":"Feature","properties":{"SISTEMA":"Metrobús","NOMBRE":"Clave","LINEA":"07","EST":"10","TIPO":"Intermedia","ALCALDIAS":"Gustavo A. Madero"},"geometry":{"type":"Point","coordinates":[-99.126347179606753,19.464646686994367,0.0]}},
{"type":"Feature","properties":{"SISTEMA":"Metrobús","NOMBRE":"Misterios","LINEA":"07","EST":"11","TIPO":"Intermedia","ALCALDIAS":"Gustavo A. Madero / Cuauhtémoc"},"geometry":{"type":"Point","coordinates":[-99.127438063835413,19.461754527157797,0.0]}},
{"type":"Feature","properties":{"SISTEMA":"Metrobús","NOMBRE":"Mercado Beethoven","LINEA":"07","EST":"12","TIPO":"Intermedia","ALCALDIAS":"Cuauhtémoc"},"geometry":{"type":"Point","coordinates":[-99.129125222318251,19.45732546502067,0.0]}},
{"type":"Feature","properties":{"SISTEMA":"Metrobús","NOMBRE":"Peralvillo","LINEA":"07","EST":"13","TIPO":"Intermedia","ALCALDIAS":"Cuauhtémoc"},"geometry":{"type":"Point","coordinates":[-99.130862423543803,19.453118977708289,0.0]}},
{"type":"Feature","properties":{"SISTEMA":"Metrobús","NOMBRE":"Tres Culturas","LINEA":"07","EST":"14","TIPO":"Intermedia","ALCALDIAS":"Cuauhtémoc"},"geometry":{"type":"Point","coordinates":[-99.132826977555169,19.450602338134054,0.0]}},
{"type":"Feature","properties":{"SISTEMA":"Metrobús","NOMBRE":"Glorieta Cuitláhuac","LINEA":"07","EST":"15","TIPO":"Intermedia","ALCALDIAS":"Cuauhtémoc"},"geometry":{"type":"Point","coordinates":[-99.135631753117764,19.447376666880306,0.0]}},
{"type":"Feature","properties":{"SISTEMA":"Metrobús","NOMBRE":"Garibaldi M. Lagunilla","LINEA":"07","EST":"16","TIPO":"Intermedia","ALCALDIAS":"Cuauhtémoc"},"geometry":{"type":"Point","coordinates":[-99.138971744116503,19.444391292476322,0.0]}},
{"type":"Feature","properties":{"SISTEMA":"Metrobús","NOMBRE":"Glorieta Violeta","LINEA":"07","EST":"17","TIPO":"Intermedia","ALCALDIAS":"Cuauhtémoc"},"geometry":{"type":"Point","coordinates":[-99.143264027036508,19.440482268462773,0.0]}},
{"type":"Feature","properties":{"SISTEMA":"Metrobús","NOMBRE":"Hidalgo","LINEA":"07","EST":"18","TIPO":"Transbordo","ALCALDIAS":"Cuauhtémoc"},"geometry":{"type":"Point","coordinates":[-99.146802863413839,19.437293957504082,0.0]}},
{"type":"Feature","properties":{"SISTEMA":"Metrobús","NOMBRE":"El Caballito","LINEA":"07","EST":"19","TIPO":"Intermedia","ALCALDIAS":"Cuauhtémoc"},"geometry":{"type":"Point","coordinates":[-99.149500169931287,19.435590513113731,0.0]}},
{"type":"Feature","properties":{"SISTEMA":"Metrobús","NOMBRE":"Amajac","LINEA":"07","EST":"20","TIPO":"Transbordo","ALCALDIAS":"Cuauhtémoc"},"geometry":{"type":"Point","coordinates":[-99.153336403739189,19.433758275521406,0.0]}},
{"type":"Feature","properties":{"SISTEMA":"Metrobús","NOMBRE":"París","LINEA":"07","EST":"21","TIPO":"Intermedia","ALCALDIAS":"Cuauhtémoc"},"geometry":{"type":"Point","coordinates":[-99.155969579027484,19.432502929390836,0.0]}},
{"type":"Feature","properties":{"SISTEMA":"Metrobús","NOMBRE":"Reforma","LINEA":"07","EST":"22","TIPO":"Transbordo","ALCALDIAS":"Cuauhtémoc"},"geometry":{"type":"Point","coordinates":[-99.158628413118251,19.431252766122146,0.0]}},
{"type":"Feature","properties":{"SISTEMA":"Metrobús","NOMBRE":"Hamburgo","LINEA":"07","EST":"23","TIPO":"Transbordo","ALCALDIAS":"Cuauhtémoc"},"geometry":{"type":"Point","coordinates":[-99.162051898598079,19.429635060840482,0.0]}},
{"type":"Feature","properties":{"SISTEMA":"Metrobús","NOMBRE":"Ahuehuete","LINEA":"07","EST":"24","TIPO":"Intermedia","ALCALDIAS":"Cuauhtémoc"},"geometry":{"type":"Point","coordinates":[-99.164974469568094,19.428260272916866,0.0]}},
{"type":"Feature","properties":{"SISTEMA":"Metrobús","NOMBRE":"El Ángel","LINEA":"07","EST":"25","TIPO":"Intermedia","ALCALDIAS":"Cuauhtémoc"},"geometry":{"type":"Point","coordinates":[-99.168581387888992,19.426566430323849,0.0]}},
{"type":"Feature","properties":{"SISTEMA":"Metrobús","NOMBRE":"La Diana","LINEA":"07","EST":"26","TIPO":"Intermedia","ALCALDIAS":"Cuauhtémoc"},"geometry":{"type":"Point","coordinates":[-99.171647953552224,19.425135899315819,0.0]}},
{"type":"Feature","properties":{"SISTEMA":"Metrobús","NOMBRE":"Chapultepec","LINEA":"07","EST":"27","TIPO":"Intermedia","ALCALDIAS":"Cuauhtémoc"},"geometry":{"type":"Point","coordinates":[-99.174288863105161,19.423891672218762,0.0]}},
{"type":"Feature","properties":{"SISTEMA":"Metrobús","NOMBRE":"Gandhi","LINEA":"07","EST":"28","TIPO":"Intermedia","ALCALDIAS":"Miguel Hidalgo"},"geometry":{"type":"Point","coordinates":[-99.180435338862395,19.423999564481726,0.0]}},
{"type":"Feature","properties":{"SISTEMA":"Metrobús","NOMBRE":"Antropología","LINEA":"07","EST":"29","TIPO":"Intermedia","ALCALDIAS":"Miguel Hidalgo"},"geometry":{"type":"Point","coordinates":[-99.184924813783439,19.424688689164427,0.0]}},
{"type":"Feature","properties":{"SISTEMA":"Metrobús","NOMBRE":"Auditorio","LINEA":"07","EST":"30","TIPO":"Intermedia","ALCALDIAS":"Miguel Hidalgo"},"geometry":{"type":"Point","coordinates":[-99.194200661037655,19.426094350569169,0.0]}},
{"type":"Feature","properties":{"SISTEMA":"Metrobús","NOMBRE":"Campo Marte","LINEA":"07","EST":"31","TIPO":"Terminal","ALCALDIAS":"Miguel Hidalgo"},"geometry":{"type":"Point","coordinates":[-99.199359556924648,19.426886529742525,0.0]}},
{"type":"Feature","properties":{"SISTEMA":"Metrobús","NOMBRE":"Indios Verdes","LINEA":"01","EST":"01","TIPO":null,"ALCALDIAS":"Gustavo A. Madero"},"geometry":{"type":"Point","coordinates":[-99.11971262485865,19.496853351807463,0.0]}},
{"type":"Feature","properties":{"SISTEMA":"Metrobús","NOMBRE":"Buenavista II","LINEA":"01","EST":"47","TIPO":"Terminal","ALCALDIAS":"Cuauhtémoc"},"geometry":{"type":"Point","coordinates":[-99.152059431592605,19.446394908252973,0.0]}},
{"type":"Feature","properties":{"SISTEMA":"Metrobús","NOMBRE":"Archivo General","LINEA":"05","EST":"17","TIPO":null,"ALCALDIAS":"Venustiano Carranza"},"geometry":{"type":"Point","coordinates":[-99.114407937675978,19.437195496143328,0.0]}}
]
}
